company	url	picture	address	Area	tags	numOfEmplyee	category	contactEmail	contactPhone	contactName	description	twitter	facebookPage	latitude	longitude	isHiring	on logo map?	tofes?	Company Type	Comments	If your company is hiring, please add a link to the "open position" web page	~Year of establishment	~Are you familiar with the grants for Jerusalem based companies?	~Is your company looking to raise money?	~If yes- would you like to get more information about the grants?did	~If not - would you like to get more information about the grants?	~Is your company looking to raise money?	logo	Company	מקור	שם החברה באנגלית	שלוחות בחו"ל	מקור תיק לקוח	פקס	מגזר עסקי	מענק לחברות ביו	מוסד אקדמי	מעוניין בפניה יזומה	מענק הסתגלות	הוסף איש קשר ראשי כעובד חברה	מהות הפניה	ביו-גדול	מנכ"ל	ח.פ	השפעה על התאמת תוכניות הלימודים לצרכי התעשיה	תעסוקה	מסלול תעסוקה	כוונה לפתוח או להרחיב שלוחות	מסלול שכר גבוה	איזור תעשיה	שלוחות בישראל	שלוחות בירושלים	מעבדות	הקצאת קרקע	עובד עובר	תעסוקת חרדים	מסלול אחר	האם התקבלו מענקים קודמים	ביצוע מחקרים עם חוקרים באקדמיה	בעלים משני	מענק לחברות הזנק	מענק העסקת סטודנטים	כוונה לקלוט סטודנטים	תחום	מהנדסים/מתכנתים	עובדי הנהלה	עובדים אחרים	תאריך Round A	סכום Round A	תאריך Round B	סכום Round B	תאריך Seed	סכום Seed
 CellCure Neurosciences Ltd.				בחר איזור תעשיה					02-5722006	שרה אלטמן						Nope												<img src="" style="max-height: 100px;max-width: 100px;" />	<a target="_blank" rel="nofollow" href=""> CellCure Neurosciences Ltd.</a>	הקובץ של הרל"י	CellCure Neurosciences Ltd	לא	בחר מקור		בחר מגזר	כן	לא	לא	לא	כן	בחר מהות הפניה	לא		513752394	לא	לא	לא	לא	לא		לא	לא	לא	לא	לא	לא	לא	לא	לא		לא	לא	לא										
3GSolar	http://www.3gsolar.com/	http://www.3gsolar.com/wp-content/themes/3gsolar/images/headerLogo.jpg	3 Hamarpe St. 	HH	Mid	20	Energy		(972) 73 7073750	Barry N. Breen	Based on highly-efficient, low-cost DSC modules, Focused on the global PV market, 3GSolar offers a technical and economic alternative to traditional PV devices.			31.802254	35.211457	Yes, we are hiring!	?											<img src="http://www.3gsolar.com/wp-content/themes/3gsolar/images/headerLogo.jpg" style="max-height: 100px;max-width: 100px;" />	<a target="_blank" rel="nofollow" href="http://www.3gsolar.com/">3GSolar</a>	הקובץ של MAdeinJLM	3GSolar																																										
40Nuggets	http://40nuggets.com/	https://40nuggets.com/dashboard/images/logo.png	34 Ben Yoezer Yossi Jerusalem	South 	Young	5	Mobile	Aaron Horowitz			We line up your leads, tell you who wants what, and let you handle the business of selling. Customer intelligence without the hassle.			31.752894	35.206264		V											<img src="https://40nuggets.com/dashboard/images/logo.png" style="max-height: 100px;max-width: 100px;" />	<a target="_blank" rel="nofollow" href="http://40nuggets.com/">40Nuggets</a>	הקובץ של MAdeinJLM	40Nuggets																																										
Abe's market	http://www.abesmarket.com/	http://skin.abesmarket.com/skin/frontend/abe/responsive/images/header/abeslogo_r.png	Emek Refaim	South 	Mid	30	Internet	Jon Polin			Abe’s Market is the online marketplace that gives natural product entrepreneurs a platform to showcase their products and tell their unique stories.			31.767599	35.223618		V											<img src="http://skin.abesmarket.com/skin/frontend/abe/responsive/images/header/abeslogo_r.png" style="max-height: 100px;max-width: 100px;" />	<a target="_blank" rel="nofollow" href="http://www.abesmarket.com/">Abe's market</a>	הקובץ של MAdeinJLM	Abe's market																																										
Accomplish software	http://www.accomplish-software.videoworldgroup.com	http://www.accomplish-software.videoworldgroup.com/photos/white_icon.png	Harav Hisdai Kreshkash 17/2				Mobile	Yonatanreiss@gmail.com 	972505817962	Yonatan Reiss 	Accomplish is a whole new aprouch to time management								Startup			2012		No				<img src="http://www.accomplish-software.videoworldgroup.com/photos/white_icon.png" style="max-height: 100px;max-width: 100px;" />	<a target="_blank" rel="nofollow" href="http://www.accomplish-software.videoworldgroup.com">Accomplish software</a>	הקובץ של MAdeinJLM	Accomplish software																																										
Accubeat	http://www.accubeat.co.il		המרפא 5, בית מרכזים, קומה 3	הר חוצבים		3	Hardware		02-5868330	לריסה קלאוז	תכנון , פיתוח וייצור שעונים אטומים מסוג רובידיום, מוצרי זמן טתדר מדוייקים. חברת בת של רפאל			31.802026	35.212115	Yes, we are hiring!												<img src="" style="max-height: 100px;max-width: 100px;" />	<a target="_blank" rel="nofollow" href="http://www.accubeat.co.il">Accubeat</a>	הקובץ של הרל"י	accubeat	לא	הפניה		היי-טק		כן	כן	לא	כן	הרחבת עסק בירושלים	לא	בני לוי	511884538	כן	לא	לא	כן	לא		לא	לא	לא	כן	לא	לא	לא	לא	כן	Yosef Apter	לא	לא	לא		14	9							
Algen Biopharmaceutical	http://www.biojerusalem.org.il/database_company.asp?ID=3	http://madeinjlm.org/map/1px.png	Givat Ram, Jerusalem	GR			Medical				Algen Biopharmaceuticals is developing technologies for tricking cancer cells into “committing suicide” and thus preventing their spread.	Read more: http://www.crunchbase.com/financial-organization/ourcrowd#ixzz2bB4sP82X 		31.779123	35.196724		X											<img src="http://madeinjlm.org/map/1px.png" style="max-height: 100px;max-width: 100px;" />	<a target="_blank" rel="nofollow" href="http://www.biojerusalem.org.il/database_company.asp?ID=3">Algen Biopharmaceutical</a>	הקובץ של MAdeinJLM	Algen Biopharmaceutical																																										
Algen Biopharmaceuticals Inc.							Medical																					<img src="" style="max-height: 100px;max-width: 100px;" />	<a target="_blank" rel="nofollow" href="">Algen Biopharmaceuticals Inc.</a>	הקובץ של הרל"י		Givat Ram, Jerusalem																																									
AnyClip	http://www.anyclip.com/	http://www.render.co.il/img/gallery/Anyclip_01.jpg	Hevron Road 24, Jerusalem	JVP	Mid	20	Internet	Oren Nauman			AnyClip enables users to find any moment from any movie in its database. Its technology and innovative user experience allows consumers to relive their favorite moments from their favorite movies. AnyClip partners with film and television studios to create new promotional channels for movies and monetize their catalog content. Leveraging its distribution network, AnyClip allows third-party sites to provide their users with fun, exciting and legal movie content services, increasing traffic and ARPU.			31.767147	35.225567	Yes, we are hiring!	V											<img src="http://www.render.co.il/img/gallery/Anyclip_01.jpg" style="max-height: 100px;max-width: 100px;" />	<a target="_blank" rel="nofollow" href="http://www.anyclip.com/">AnyClip</a>	הקובץ של MAdeinJLM	AnyClip																																										
Ariel Kotzer	https://www.behance.net/arielko	https://m1.behance.net/profiles5/103808/01038081247882887.jpg	bezalel 3				Other	arielko@gmail.com	97226747070	Ariel Kotzer	creative: ariel kotzer helps you figure out what you want to say and then helps you say it, convincingly and memorably. online or off, in presentations, clips, campaigns, exhibits, websites and any other tool or media that's relevant to your need. just ask google, intel, and teva, among others.	@arielko2							Service Provider / Outsource									<img src="https://m1.behance.net/profiles5/103808/01038081247882887.jpg" style="max-height: 100px;max-width: 100px;" />	<a target="_blank" rel="nofollow" href="https://www.behance.net/arielko">Ariel Kotzer</a>	הקובץ של MAdeinJLM	Ariel Kotzer																																										
BABA		http://madeinjlm.org/map/1px.png	Marcus street	Hansen Compund			Accelerator/Hub			Hanan Glabendorf	Bezalel Alumni Business Accelerator, based in Hansen Compound 			31.768073	35.217061				Accelerator									<img src="http://madeinjlm.org/map/1px.png" style="max-height: 100px;max-width: 100px;" />	<a target="_blank" rel="nofollow" href="">BABA</a>	הקובץ של MAdeinJLM	BABA																																										
Balink 	http://balink.net/	http://d3dzqwnc8fz43w.cloudfront.net/wp-content/uploads/2012/10/balink300.jpg	Agoudat Sport Hapoel 1 B				Software	contact@balink.net	+972(0)77 450 60 72	Don't know yet	Balink delivers Force.com based products and solutions that help businesses unlock the value of their cloud investment strategy.								Service Provider / Outsource									<img src="http://d3dzqwnc8fz43w.cloudfront.net/wp-content/uploads/2012/10/balink300.jpg" style="max-height: 100px;max-width: 100px;" />	<a target="_blank" rel="nofollow" href="http://balink.net/">Balink </a>	הקובץ של MAdeinJLM	Balink 																																										
BioCancell therapeutics ltd.	http://www.biocancell.com/	http://www.biocancell.com/images/stories/logo.png	8 Hartom St				Medical				BioCancell is dedicated to developing cancer treatments suitable for over 40 types of cancer, including pancreatic cancer and bladder cancer. BioCancell's patented, personalized cancer therapy approach is based on the identification of target oncogenes, such as H19.			31.802861	35.208912		X											<img src="http://www.biocancell.com/images/stories/logo.png" style="max-height: 100px;max-width: 100px;" />	<a target="_blank" rel="nofollow" href="http://www.biocancell.com/">BioCancell therapeutics ltd.</a>	הקובץ של MAdeinJLM	BioCancell therapeutics ltd.																																										
Bioline Innovations Jerusalem (BiolineRx)	http://www.biolinerx.com/	http://www.biolinerx.com/images/BIOLINERX.png	19 Hartum Street,	HH			Investor		972-2-5489100		BioLineRx is a clinical-stage, publicly-traded (NASDAQ/ TASE: BLRX) biopharmaceutical development company based in Jerusalem, Israel. The Company develops products suitable for the pharmaceutical market satisfying an unmet medical need or exhibiting advantages over current therapies. 			31.804589	35.210942		X											<img src="http://www.biolinerx.com/images/BIOLINERX.png" style="max-height: 100px;max-width: 100px;" />	<a target="_blank" rel="nofollow" href="http://www.biolinerx.com/">Bioline Innovations Jerusalem (BiolineRx)</a>	הקובץ של MAdeinJLM	Bioline Innovations Jerusalem																																										
BioLineRx Ltd.							Medical																					<img src="" style="max-height: 100px;max-width: 100px;" />	<a target="_blank" rel="nofollow" href="">BioLineRx Ltd.</a>	הקובץ של הרל"י		19 Hartum Street,			http://www.biolinerx.com/images/BIOLINERX.png																																						
Biometrix	http://www.biometrix.co.il/	http://events.eventact.com/tgmk/tgmk/MedisIsrael/biometrix.jpg	Har Hotzvim	HH			Medical				Biometrix develops, manufactures and markets innovative, high-quality medical devices for intensive care, surgery and interventional cardiology.			31.802873	35.208912		X											<img src="http://events.eventact.com/tgmk/tgmk/MedisIsrael/biometrix.jpg" style="max-height: 100px;max-width: 100px;" />	<a target="_blank" rel="nofollow" href="http://www.biometrix.co.il/">Biometrix</a>	הקובץ של MAdeinJLM	Biometrix																																										
Bizrael	http://www.bizrael.org	http://i.imgur.com/4ldsm8U.jpg	10 Mevo Ha'Asara French Hill Jerusalem				Service Provider / Outsource	maxx@bizrael.org		Maxx Blank	Bizrael is a non-profit organization running engaging Israel trips for students and young professionals focused on Israeli  business, innovation, and the start-up ecosystem. 								Other									<img src="http://i.imgur.com/4ldsm8U.jpg" style="max-height: 100px;max-width: 100px;" />	<a target="_blank" rel="nofollow" href="http://www.bizrael.org">Bizrael</a>	הקובץ של MAdeinJLM	Bizrael																																										
BriefCam	http://briefcam.com/	http://briefcam.com/wp-content/themes/briefcam2010/images/logo_sm.gif	Modiin	Modiin	Mid	40	Software		2-533-7228		BriefCam for rapid video review lets you browse hours in minutes. The result: more efficient investigation and significant savings on cost, manpower and your valuable timeb			31.808108	35.081099		V											<img src="http://briefcam.com/wp-content/themes/briefcam2010/images/logo_sm.gif" style="max-height: 100px;max-width: 100px;" />	<a target="_blank" rel="nofollow" href="http://briefcam.com/">BriefCam</a>	הקובץ של MAdeinJLM	BriefCam																																										
BrightSource Energy	http://www.brightsourceenergy.com/	http://www.brightsourceenergy.com/site/images/hd-logo.jpg	Kiryat Mada 11	HH	Big	200	Energy				BrightSource Energy, Inc. designs, develops, and deploys solar thermal technology to produce high-value electricity and steam for power, petroleum, and industrial-process markets worldwide.			31.802637	35.20914		V											<img src="http://www.brightsourceenergy.com/site/images/hd-logo.jpg" style="max-height: 100px;max-width: 100px;" />	<a target="_blank" rel="nofollow" href="http://www.brightsourceenergy.com/">BrightSource Energy</a>	הקובץ של MAdeinJLM	BrightSource Energy																																										
Bynet	http://www.bynet-yesum.co.il		המרפא 8	HH			Software		02-5879798	צביקה כהן	תשתיות תקשורת למשרדים ממשלתיים, האונ' העברית, NDS וכו'			31.809	35.2235	Nope												<img src="" style="max-height: 100px;max-width: 100px;" />	<a target="_blank" rel="nofollow" href="http://www.bynet-yesum.co.il">Bynet</a>	הקובץ של הרל"י	Bynet yesum maarachot	לא	אחר	02-5813868	תקשורת	לא	לא	כן	לא	כן	אחר	לא	צביקה כהן		לא	לא	לא	לא	לא		כן	לא	לא	לא	לא	לא	לא	לא	לא		לא	כן	כן										
CDI Systems	http://www.cdisys.com/	http://www.cdisys.com/	19 Hartum St.	HH		above 20	Software	itzhak@cdisys.com	02-5870112	Itzhak Levit	CDI Systems focuses on the development of a unique and innovative online publishing platform - NetIS™. The company has successfully deployed scores of solutions for the Internet, Intranet, Mobile Internet, DVD/CD-ROMs, tablets and eReader devices. Deployments range from global giants such as Dun & Bradstreet from Japan to the United States, government contracts, the European Directorate for the Quality of Medicines & Healthcare (EDQM), to publishing houses. Please visit www.cdisys.com to learn more. 		https://www.facebook.com/pages/CDI-Systems/144901298876977	31.804388	35.210967				Startup			1992	Yes	No			No	<img src="http://www.cdisys.com/" style="max-height: 100px;max-width: 100px;" />	<a target="_blank" rel="nofollow" href="http://www.cdisys.com/">CDI Systems</a>	הקובץ של MAdeinJLM	CDI Systems																																										
Celem	http://www.celem.com	https://encrypted-tbn0.gstatic.com/images?q=tbn:ANd9GcQU2_hPT3AtRvuPWwssc4IDpDDgYlXo1FozvZxrbbFlTk_8ARwr	12/2 Hi Tech Park, Givat Ram P.O. Box 39109 Jerusalem 91390, ISRAEL	Givat Ram		2			02-6788305	בנימין ג'קובוביץ'	Celem is the world’s leading developer and producer of high power capacitors for induction heating applications. Our extensive catalog of high power induction heating capacitors, capacitance values and assembly system solutions ensures that we can quickly provide our customers with any configuration of voltage, current and capacitance that they need.			31.767683	35.196793	Nope												<img src="https://encrypted-tbn0.gstatic.com/images?q=tbn:ANd9GcQU2_hPT3AtRvuPWwssc4IDpDDgYlXo1FozvZxrbbFlTk_8ARwr" style="max-height: 100px;max-width: 100px;" />	<a target="_blank" rel="nofollow" href="http://www.celem.com">Celem</a>	הקובץ של הרל"י	Celem	לא	אחר	02-6536094	היי-טק	לא	לא	כן	לא	כן	אחר	לא	בנימין ג'קובוביץ'		לא	לא	לא	לא	לא		לא	לא	לא	לא	לא	לא	לא	לא	לא		לא	כן	כן		8	2							
Chutzpah Media	http://www.chutzpahmedia.co.il	https://pbs.twimg.com/profile_images/2629774226/09bf3ade36b0fd78919fb6530f09adb6.png	Rehov HaMagid 6b/7 German Colony	German Colony		1	Service Provider / Outsource	elahn@chutzpahmedia.co.il	+972 50 261 3341	Elahn Zetlin	Video production for business marketing, promotion, fund raising, tourism and events. A one stop shop for businesses, organizations and individuals to build brand awareness, promote a product, charity or cause as well as get assistance with marketing of video content online via social media and other channels.	https://twitter.com/ChutzpahMedia	www.facebook.com/chutzpahmedia	31.765793	35.220194	Nope			Other									<img src="https://pbs.twimg.com/profile_images/2629774226/09bf3ade36b0fd78919fb6530f09adb6.png" style="max-height: 100px;max-width: 100px;" />	<a target="_blank" rel="nofollow" href="http://www.chutzpahmedia.co.il">Chutzpah Media</a>	הקובץ של MAdeinJLM	Chutzpah Media																																										
Cisco	http://www.nds.com/	http://gdpinsider.com/wp-content/uploads/2013/11/Capture1-620x350.png	Har Hotzvim	HH	Corporate	1000	Software				NDS is a leading global provider of end-to-end software solutions for the pay television industry. We enable pay-TV operators to differentiate their service by delivering a unique viewing experience to their subscribers—anytime, anywhere on any device—while ensuring that only paying viewers can view content.			31.802835	35.209653		V											<img src="http://gdpinsider.com/wp-content/uploads/2013/11/Capture1-620x350.png" style="max-height: 100px;max-width: 100px;" />	<a target="_blank" rel="nofollow" href="http://www.nds.com/">Cisco</a>	הקובץ של MAdeinJLM	Cisco																																										
ClearView Monitoring	http://www.clearviewmonitoring.com/	http://madeinjlm.org/map/1px.png	Hartum 19, Har Hotzvim	HH	Mid	10	Software		02-5400920	שלמה שור	specializes in Cleantech Enterprise Software solutions for condition monitoring (CM), early fault detection and classification (FDC), performance enhancement and on-line analysis and diagnostics.			31.802885	35.209693		?											<img src="http://madeinjlm.org/map/1px.png" style="max-height: 100px;max-width: 100px;" />	<a target="_blank" rel="nofollow" href="http://www.clearviewmonitoring.com/">ClearView Monitoring</a>	הקובץ של MAdeinJLM	ClearView Monitoring																																										
Coolnet	http://www.coolnet.ps/	http://www.pita.ps/sites/default/files/styles/directory_logo/public/coolnet_logo.jpeg?itok=izB424lm	Rashid St.2	East			software			Hani Alami	Coolnet has the know how to design, develop and deploy tailor wireless communications systems and solutions.	https://twitter.com/Coolnet_ps	https://www.facebook.com/pages/CoolNet/35052327478	31.7836111	35.2338975																																																										
Correlor	http://www.correlor.com	http://s3.amazonaws.com/crunchbase_prod_assets/assets/images/resized/0023/4924/234924v2-max-250x250.png	Hevron Road 24	JVP	Young	7	Internet	Larry Rubin			Correlor unleashes the treasure of social data to deliver a completely new breed of web personalization and user engagement, helping businesses to craft powerful relationships with consumers and drive revenues.			31.766933	35.225269		V											<img src="http://s3.amazonaws.com/crunchbase_prod_assets/assets/images/resized/0023/4924/234924v2-max-250x250.png" style="max-height: 100px;max-width: 100px;" />	<a target="_blank" rel="nofollow" href="http://www.correlor.com">Correlor</a>	הקובץ של MAdeinJLM	Correlor																																										
CrossReader	http://www.crossreader.com/	http://crossreader.com/wp-content/uploads/2013/02/CrossLogo-300x80.png	Hevron Road 24	JVP	Young	7	Internet	Navot Volk			CrossReader is a content discovery service that enhances information consumption on tablets. CrossReader identifies additional content relevant to the page currently being viewed and seamlessly presents it in an unobtrusive manner.			31.767071	35.225258		V											<img src="http://crossreader.com/wp-content/uploads/2013/02/CrossLogo-300x80.png" style="max-height: 100px;max-width: 100px;" />	<a target="_blank" rel="nofollow" href="http://www.crossreader.com/">CrossReader</a>	הקובץ של MAdeinJLM	CrossReader																																										
Curiyo	http://curiyo.com	https://encrypted-tbn0.gstatic.com/images?q=tbn:ANd9GcTmTldjbX2xCNPBJUbK6P0L0xyPM-fzBAcqadooFQHKbzd9v3lj	43B Emek Refaim	Emek Refaim	Young	7	Internet	bob@curiyo.com	+972-2-579-2573	Bob Rosenschein	Founded by Bob Rosenschein, founder and former CEO of Answers.com, a top-20 U.S. website, Curiyo's vision is to simplify and streamline online content discovery. The product delivers relevant information to the user in context so the user does not have to open up new tabs to search or switch between apps. The company's publisher platform keeps websites users on the site longer by providing useful information with leaving the page.	https://twitter.com/BeCuriyo	https://www.facebook.com/becuriyo	31.7625206	35.2182321	Nope			Startup			2	Yes	Yes				<img src="https://encrypted-tbn0.gstatic.com/images?q=tbn:ANd9GcTmTldjbX2xCNPBJUbK6P0L0xyPM-fzBAcqadooFQHKbzd9v3lj" style="max-height: 100px;max-width: 100px;" />	<a target="_blank" rel="nofollow" href="http://curiyo.com">Curiyo</a>	הקובץ של MAdeinJLM	Curiyo																																										
Dagzahav animation	http://www.dagzahav-animation.co.il/	https://encrypted-tbn1.gstatic.com/images?q=tbn:ANd9GcSDEhqU_9rRDYm_YgssHKY_xZaOoTNGS3B-5lI6JvJbDk0zvpZf	Gordon 9/6a, Kiryat Hayovel	Kiryat Yovel		4	Service Provider / Outsource	maya@dagzahav-animation.co.il	972-54-7939917	Maya Weksler	I'm an expert in animated explainer videos for stratups. in the studio we produced over 30 video for different startups & tech companies, such as - nice, incentives solutions, expobee, visa & more. The main advantage a stratup gets from working with us is a well crafted video that explain what he does in clear, engaging & fun way. 		https://www.facebook.com/pages/%D7%93%D7%92%D7%96%D7%94%D7%91-%D7%90%D7%A0%D7%99%D7%9E%D7%A6%D7%99%D7%94-%D7%A1%D7%A8%D7%98%D7%99%D7%9D-%D7%9C%D7%A2%D7%A1%D7%A7%D7%99%D7%9D-%D7%95%D7%90%D7%A8%D7%92%D7%95%D7%A0%D7%99%D7%9D/112827375466648?sk=wall	31.767325	35.177588	Nope			Service Provider / Outsource									<img src="https://encrypted-tbn1.gstatic.com/images?q=tbn:ANd9GcSDEhqU_9rRDYm_YgssHKY_xZaOoTNGS3B-5lI6JvJbDk0zvpZf" style="max-height: 100px;max-width: 100px;" />	<a target="_blank" rel="nofollow" href="http://www.dagzahav-animation.co.il/">Dagzahav animation</a>	הקובץ של MAdeinJLM	Dagzahav animation																																										
Data Technologies	http://www.data-technologies.com/	http://t2.gstatic.com/images?q=tbn:ANd9GcQ3gLqcZSUsojidexivtWBlwpEV_K1nW1PGtawmjqTRkosr2bw0					Hardware				DATA Technologies develops, manufactures & distributes equipment for counting & packaging small objects such as seeds, diamonds, capsules and tablets. 			31.805446	35.212297		X											<img src="http://t2.gstatic.com/images?q=tbn:ANd9GcQ3gLqcZSUsojidexivtWBlwpEV_K1nW1PGtawmjqTRkosr2bw0" style="max-height: 100px;max-width: 100px;" />	<a target="_blank" rel="nofollow" href="http://www.data-technologies.com/">Data Technologies</a>	הקובץ של MAdeinJLM	Data Technologies																																										
Data Tide	http://data-tide.com	http://data-tide.com/images/logo.png	Azza 7, Jerusalem	Center	Young	2	Software	amos.weiskopf@gmail.com		Amos Weiskopf	We champion strategic planning in the digital arena. From mix modelling to information architecture, we craft marketing roadmaps that win - and execute them.   We carry out business intelligence operations, covering anything from competitive market analysis to consumer journey mapping and forecasting.	972544847299		31.772268	35.213459	Nope			Service Provider / Outsource		No	2013																																																			
DBS-H	http://www.dbs-h.com/	http://madeinjlm.org/map/1px.png	8 HaTaasia str. Talpiyot	South	Young	5	Software			Michael Elkin	DBS-H Ltd is an innovative data integration provider that develops solutions for continuous data integration in private, hybrid or public cloud environments.			31.750941	35.212501		V											<img src="http://madeinjlm.org/map/1px.png" style="max-height: 100px;max-width: 100px;" />	<a target="_blank" rel="nofollow" href="http://www.dbs-h.com/">DBS-H</a>	הקובץ של MAdeinJLM	DBS-H																																										
Delta Three	http://www.deltathree.com		גן טכנולוגי מלחה, בניין 9, ת.ד. 48265	Malcha			software		02-6491222	מרב כרמלי-גוזמן	שירותי Voice Over IP			31.7698	35.21215	Nope												<img src="" style="max-height: 100px;max-width: 100px;" />	<a target="_blank" rel="nofollow" href="http://www.deltathree.com">Delta Three</a>	הקובץ של הרל"י	Delta three	כן	אחר	02-6491200	היי-טק	לא	לא	כן	לא	כן	מוסד אקדמי	לא		512336660	לא	לא	לא	לא	לא		לא	לא	לא	לא	לא	לא	לא	לא	לא		לא	כן	כן										
Digital Footsteps	http://digital-footsteps.com/	http://digital-footsteps.com/wp-content/themes/digitalfootsteps/images/logo.png			Young	5	Internet				Multimedia applications, powered by Digital Footsteps’  proprietary technologies,  deliver fee-free, GPS-driven, on and off-line comprehensive tour app solutions.						V											<img src="http://digital-footsteps.com/wp-content/themes/digitalfootsteps/images/logo.png" style="max-height: 100px;max-width: 100px;" />	<a target="_blank" rel="nofollow" href="http://digital-footsteps.com/">Digital Footsteps</a>	הקובץ של MAdeinJLM	Digital Footsteps																																										
Digital-Clay	www.digital-clay.com	http://digital-clay.com/support/wiki/lib/exe/fetch.php/logo.jpg	1 avizohar				Software	talir@digital-clay.com	972544436804	Tali Rejwan	Digital-Clay is a user friendly application engine that anyone can use to build software products for desktop web and mobile devices with the use of visual tools and no coding.			31.775927	35.188855	Yes, we are hiring!			Startup				No	Yes			Yes	<img src="http://digital-clay.com/support/wiki/lib/exe/fetch.php/logo.jpg" style="max-height: 100px;max-width: 100px;" />	<a target="_blank" rel="nofollow" href="www.digital-clay.com">Digital-Clay</a>	הקובץ של MAdeinJLM	Digital-Clay																																										
Easy Check Medical	http://www.israelbizreg.com/easy-check-medical-diagnostic-technologies-ltd	http://madeinjlm.org/map/1px.png	The Technological Garden	Malcha			Medical							31.750285	35.187464		X											<img src="http://madeinjlm.org/map/1px.png" style="max-height: 100px;max-width: 100px;" />	<a target="_blank" rel="nofollow" href="http://www.israelbizreg.com/easy-check-medical-diagnostic-technologies-ltd">Easy Check Medical</a>	הקובץ של MAdeinJLM	Easy Check Medical																																										
Elad Group		http://madeinjlm.org/map/1px.png			Big,Service		Service Provider / Outsource										X											<img src="http://madeinjlm.org/map/1px.png" style="max-height: 100px;max-width: 100px;" />	<a target="_blank" rel="nofollow" href="">Elad Group</a>	הקובץ של MAdeinJLM	Elad Group																																										
Eliora Games	bullsandbearsonline.com	http://madeinjlm.org/map/1px.png	Kortz St. Arnona	Talpiot			Internet	kerin@bullsandbearsonline.com		Kerin Jacobs	Eliora Games develops unique educational tools that teach basic economic principles by mimicking how the real economy and financial markets work.  Our first game is built on the Facebook platform, and is going to be available for the general public in just a few months!					Yes, we are hiring!			Startup									<img src="http://madeinjlm.org/map/1px.png" style="max-height: 100px;max-width: 100px;" />	<a target="_blank" rel="nofollow" href="bullsandbearsonline.com">Eliora Games</a>	הקובץ של MAdeinJLM	Eliora Games																																										
eMobile R&D Ecosystems	http://www.poketalk.com		גן-טכנולוגי מלחה, בניין 1	גט"י מלחה		11	software		054-7581704	חיים מסיקה	החברה מפתחת תקשורת סלולארית לחול			31.7698	35.21215	Yes, we are hiring!												<img src="" style="max-height: 100px;max-width: 100px;" />	<a target="_blank" rel="nofollow" href="http://www.poketalk.com">eMobile R&D Ecosystems</a>	הקובץ של הרל"י	eMobile	כן	אחר		היי-טק		לא	כן	כן	כן	הרחבת עסק בירושלים	לא	חיים מסיקה	514720879	לא	לא	לא	כן	לא		לא	לא	לא	לא	לא	לא	לא	לא	לא	Yosef Apter	כן	לא	כן		8	3							
Energy Global	http://www.energiyaglobal.com		יד חרוצים 4	תלפיות			Energy		054-484-4391	ג'וליאן סינקלייר	פיתוח פרוייקטים של אנרגיה סולרית במדינות מתפתחות. חברת אחות לחברה המקורית שפותחה בקטורה					Yes, we are hiring!												<img src="" style="max-height: 100px;max-width: 100px;" />	<a target="_blank" rel="nofollow" href="http://www.energiyaglobal.com">Energy Global</a>	הקובץ של הרל"י	EnergiyaGlobal	כן	אחר		היי-טק	לא	לא	כן	לא	כן	הרחבת עסק בירושלים	לא			לא	לא	לא	כן	כן		לא	לא	לא	לא	לא	לא	לא	לא	לא		לא	כן	כן										
Ericom	http://www.ericom.com/contact.asp	http://springboardpr.com/wp-content/uploads/ericom-logo-01.png	המרפא 8, ת.ד. 45122	הר חוצבים	Mid		Software				ספקית פתרונות גישה לשולחנות עבודה ויישומים הפועלים על גבי מגוון שרתים ארגוניים, כמו גם פתרונות לשיפור חווית המשתמש באמצעות האצת פרוטוקול ה-RDP. עם עשרות אלפי לקוחות ולמעלה משבע מיליון התקנות ב- 45 מדינות, מפעילה אריקום שלוחות בארה"ב, אירופה, וישראל, ורשת של מפיצים, שותפים אסטרטגיים ויצרני ציוד מקורי (OEM), בניהם HP, WYSE, IGEL ואחרים, המשלבים את מוצריה בפתרונותיהם בצפון אמריקה, אירופה, והמזרח הרחוק. מרכז הפיתוח של אריקום פועל בהר חוצבים.			31.802865	35.211192		V											<img src="http://springboardpr.com/wp-content/uploads/ericom-logo-01.png" style="max-height: 100px;max-width: 100px;" />	<a target="_blank" rel="nofollow" href="http://www.ericom.com/contact.asp">Ericom</a>	הקובץ של MAdeinJLM	Ericom																																										
Everminder	http://www.everminder.com/	http://madeinjlm.org/map/1px.png		Talpiot	Pre-Seed	1	mobile	Ben Wiener									V											<img src="http://madeinjlm.org/map/1px.png" style="max-height: 100px;max-width: 100px;" />	<a target="_blank" rel="nofollow" href="http://www.everminder.com/">Everminder</a>	הקובץ של MAdeinJLM	Everminder																																										
Execelingo	http://www.excelingo.com/	http://madeinjlm.org/map/1px.png			Pre-Seed	2	Mobile				ExceLingo's mission is to be the world's leading provider of language learning applications for mobile phones. 						V											<img src="http://madeinjlm.org/map/1px.png" style="max-height: 100px;max-width: 100px;" />	<a target="_blank" rel="nofollow" href="http://www.excelingo.com/">Execelingo</a>	הקובץ של MAdeinJLM	Execelingo																																										
Exlibris	http://www.exlibris.co.il/	http://www.exlibrisgroup.com/template/images/company_logo.gif	The Technological Garden	Malcha	Big 	300	Software				Take your library to the next generation Consolidate and extend your library\'s operations with a unified, SaaS platform for electronic, print and digital.			31.750285	35.187364	TRUE	V											<img src="http://www.exlibrisgroup.com/template/images/company_logo.gif" style="max-height: 100px;max-width: 100px;" />	<a target="_blank" rel="nofollow" href="http://www.exlibris.co.il/">Exlibris</a>	הקובץ של MAdeinJLM	Exlibris																																										
FaceTune	http://www.facetuneapp.com	http://a200.phobos.apple.com/us/r1000/113/Purple2/v4/fc/f5/9a/fcf59aff-4318-5b9d-16df-3803e954ff7f/mzl.guqiyozq.png	Givat Ram	Givat Ram	Mid	17	Mobile	Zeev Farbman		Zeev Farbman	Facetune is a fun and powerful portrait photo editor which allows you to easily achieve magazine-style results!	https://twitter.com/facetuneapp	https://www.facebook.com/facetuneapp	31.767407	35.197421	Yes, we are hiring!	V											<img src="http://a200.phobos.apple.com/us/r1000/113/Purple2/v4/fc/f5/9a/fcf59aff-4318-5b9d-16df-3803e954ff7f/mzl.guqiyozq.png" style="max-height: 100px;max-width: 100px;" />	<a target="_blank" rel="nofollow" href="http://www.facetuneapp.com">FaceTune</a>	הקובץ של MAdeinJLM	FaceTune																																										
Finn Partners	http://www.finnpartners.co.il	http://www.holmesreport.com/Uploadedfiles/agency/logo%20translucent.png	Hartum 8, Har Hotzvim	HH		5/10/2014	Service Provider / Outsource	goel@finnpartners.co.il	02-589-2000	Goel Jasper	We help Israel-based hi-tech and bio-tech companies communicate to the markets outside of Israel that help them succeed. Our primary business is public relations, and we also provide analyst relations, strategic research and social media services.	@RFIPR		31.802911	35.213109	Yes, we are hiring!			Service Provider / Outsource									<img src="http://www.holmesreport.com/Uploadedfiles/agency/logo%20translucent.png" style="max-height: 100px;max-width: 100px;" />	<a target="_blank" rel="nofollow" href="http://www.finnpartners.co.il">Finn Partners</a>	הקובץ של MAdeinJLM	Finn Partners																																										
FreeMind	http://www.freemind.co.il	https://encrypted-tbn1.gstatic.com/images?q=tbn:ANd9GcQ73Lm-1y3E37J41PkiFbmOmD7TVwFcQn1AqlPxb4oUFI5vQMtNsg	2/8 Hi Tech Park, Givat Ram, POB 39039, Jerusalem 91390, ISRAEL	Givat Ram		25	Service Provider / Outsource		02-6799833	ענבל מרדכי	ייעוץ עסקי לחברות הייטק וביוטק בארץ ובעולם. רוב עובדי החברה מרקע טכנולוגי (השכלה ועבודה)			31.767115	35.198059	Yes, we are hiring!												<img src="2/8 Hi Tech Park, Givat Ram, POB 39039, Jerusalem 91390, ISRAEL" style="max-height: 100px;max-width: 100px;" />	<a target="_blank" rel="nofollow" href="http://www.freemind.co.il">FreeMind</a>	הקובץ של הרל"י	freemind	לא	אחר	02-6799834	אחר	לא	לא	כן	לא	כן	אחר	לא	אייל שמידט	513356766	לא	לא	לא	לא	לא		לא	לא	לא	לא	לא	לא	לא	לא	לא		לא	כן	כן		10	4	11						
Freightos	http://www.freightos.com	http://www.freightos.com/images/FreightosLogo.png	22 Yoram Ronen, Givat Masua				Software	eytan@freightos.com	+972 54 206 9227	Eytan Buchman	Freightos is creating the world's first automated online freight network, connecting the carriers, freight vendors and shippers in order to modernize the multi-trillion dollar shipping industry. An "Expedia" for freight, Freightos already works with freight forwarders around the world.	Freightos	http://www.facebook.com/freightos	31.747903	35.17185	Nope			Startup	I am resubmitting because the data on the site is defunct. 			No	No				<img src="http://www.freightos.com/images/FreightosLogo.png" style="max-height: 100px;max-width: 100px;" />	<a target="_blank" rel="nofollow" href="http://www.freightos.com">Freightos</a>	הקובץ של MAdeinJLM	Freightos																																										
Gamba Gamez	http://apps.facebook.com/reely_app/	https://fbcdn-photos-a-a.akamaihd.net/hphotos-ak-prn1/851575_531261350245254_442516766_n.png	Hevron Road 24	JVP	Young	5	Internet	David Adi				ReelyMovies		31.767045	35.225326		X											<img src="https://fbcdn-photos-a-a.akamaihd.net/hphotos-ak-prn1/851575_531261350245254_442516766_n.png" style="max-height: 100px;max-width: 100px;" />	<a target="_blank" rel="nofollow" href="http://apps.facebook.com/reely_app/">Gamba Gamez</a>	הקובץ של MAdeinJLM	Gamba Gamez																																										
GE-LIGHTING				בחר איזור תעשיה					0544735002	ירון מגל	פיתוח סוגי תאורות עתידיים מבוססות טכנולוגית חצאי מוליכים					Nope												<img src="" style="max-height: 100px;max-width: 100px;" />	<a target="_blank" rel="nofollow" href="">GE-LIGHTING</a>	הקובץ של הרל"י		לא	בחר מקור		בחר מגזר	לא	לא	לא	לא	כן	בחר מהות הפניה	לא			לא	לא	לא	כן	לא		לא	לא	לא	לא	לא	לא	לא	לא	לא	Itzik Ozer	לא	לא	לא										
Glide	http://www.glide.me/	http://tctechcrunch2011.files.wordpress.com/2013/03/glide-logo-blue1.png	The Technological Garden	Malcha	Young	15	Mobile	Ari Roisman			Instant Video-messaging			31.749765	35.186377		V											<img src="http://tctechcrunch2011.files.wordpress.com/2013/03/glide-logo-blue1.png" style="max-height: 100px;max-width: 100px;" />	<a target="_blank" rel="nofollow" href="http://www.glide.me/">Glide</a>	הקובץ של MAdeinJLM	Glide																																										
GreetingText	http://GreetingsText.com	http://greetingstext.com/images/en/logo.png	Levy 14	Talpiot			Internet	shuraki@gmail.com		Uriel Shuraki	At GreetingsText.com you will find all types of text greetings, such as Birthday Greetings, Holiday greetings etc. You can also find nice and funny texts and add your own texts.  			31.772415	35.220848				Startup		h							<img src="http://greetingstext.com/images/en/logo.png" style="max-height: 100px;max-width: 100px;" />	<a target="_blank" rel="nofollow" href="http://GreetingsText.com">GreetingText</a>	הקובץ של MAdeinJLM	GreetingsText.com																																										
Here a Story	here-a-story.com	here-a-story.com/assets/img/Logo.png	Hi-tech park, Givat Ram Jerusalem	Givat Ram	Young	3	Mobile	ariel@threetallguys.com		Ariel Ephrat	We're working on a mobile application for location-based storytelling called ״שמעו סיפור״ (Here a Story). Our app allows anyone to create, share and listen to local stories pinned to an interactive map.		http://facebook.com/hereAstory	31.77	35.21	Nope				2013	Yes	No																																																			
HR Vision	http://www.hrvision.com	http://www.hrvision.com/images/logo.gif	HaMarpe 4	HH	Mid	25	Software				 provides the optimal solution for call center employee assessment using unique technologies. 			31.802895	35.209653		V											<img src="http://www.hrvision.com/images/logo.gif" style="max-height: 100px;max-width: 100px;" />	<a target="_blank" rel="nofollow" href="http://www.hrvision.com">HR Vision</a>	הקובץ של MAdeinJLM	HR Vision																																										
Humenyes	http://www.humaneyes.com/	http://www.geektime.co.il/wp-content/uploads/2011/03/humaneyes-1.png	Givat Ram	Givat Ram	Mid	25	Software		972-2-651-8999					31.779223	35.196824		V											<img src="http://www.geektime.co.il/wp-content/uploads/2011/03/humaneyes-1.png" style="max-height: 100px;max-width: 100px;" />	<a target="_blank" rel="nofollow" href="http://www.humaneyes.com/">Humenyes</a>	הקובץ של MAdeinJLM	Humenyes																																										
IBM	http://www.research.ibm.com/	http://madeinjlm.org/map/1px.png	Building No. 8 Jerusalem Technology Park	Malcha	R&D Center	12	Software		04-8281423	הילה אייל	IBM R&D Jerusalem Center			31.749482	35.187103		V											<img src="http://madeinjlm.org/map/1px.png" style="max-height: 100px;max-width: 100px;" />	<a target="_blank" rel="nofollow" href="http://www.research.ibm.com/">IBM</a>	הקובץ של MAdeinJLM	IBM																																										
illuminea	http://illuminea.com	http://illuminea.com/wp-content/uploads/2013/06/illumineafblogo.png	43a Emek Refaim St.	Talpiot		5	Service Provider / Outsource	miriam@illuminea.com	(02) 5660297	Miriam Schwab	illuminea is a full service WordPress development and online marketing agency with over seven years of experience.	miriamschwab	https://www.facebook.com/illuminea	31.76291	35.218345	Yes, we are hiring!			Service Provider / Outsource		http://illuminea.com/about/careers/							<img src="http://illuminea.com/wp-content/uploads/2013/06/illumineafblogo.png" style="max-height: 100px;max-width: 100px;" />	<a target="_blank" rel="nofollow" href="http://illuminea.com">illuminea</a>	הקובץ של MAdeinJLM	illuminea																																										
Imagry	http://www.imagry.co/	https://scontent-b-lga.xx.fbcdn.net/hphotos-prn1/1148941_650456068299550_1673518052_n.png		Derech Beit Haninia	Yound		Software	Adham.ghazali@gmail.com		Adham Ghazali	Imagry is an interactive visual shopping platform that allows mobile users find products using their mobile devices. 	https://twitter.com/imagryco	https://www.facebook.com/imagry	31.826524	35.227146	Nope		V										<img src="https://scontent-b-lga.xx.fbcdn.net/hphotos-prn1/1148941_650456068299550_1673518052_n.png" style="max-height: 100px;max-width: 100px;" />	<a target="_blank" rel="nofollow" href="http://www.imagry.co/">Imagry</a>	הקובץ של MAdeinJLM	Imagry																																										
Inbal	http://inbalsoft.com/	https://fbcdn-profile-a.akamaihd.net/hprofile-ak-ash2/t1/c21.21.259.259/s200x200/479901_117236131767291_1313738885_n.jpg	נתיב האורנים 42				Service Provider / Outsource	support@inbalsoft.com	97225346548	Udi	תכנון כתיבה שירות ותמיכה למערכות מחשב חשבונאיות, ChangeMat הוא היישום העיקרי שלנו.		https://www.facebook.com/ChangeMat	31.783669	35.161751	Nope			Service Provider / Outsource				No	Yes				<img src="https://fbcdn-profile-a.akamaihd.net/hprofile-ak-ash2/t1/c21.21.259.259/s200x200/479901_117236131767291_1313738885_n.jpg" style="max-height: 100px;max-width: 100px;" />	<a target="_blank" rel="nofollow" href="http://inbalsoft.com/">Inbal</a>	הקובץ של MAdeinJLM	Inbal																																										
Innodata Isogen 	http://www.innodata.com		Gan Technology Malcha Building 23, 16th Floor Jerusalem	Malcha			software		077-5665595	דבורה מאסון	Empowering digital transformation for publishers, information services providers and enterprise content developers.			31.7698	35.21215	Nope												<img src="" style="max-height: 100px;max-width: 100px;" />	<a target="_blank" rel="nofollow" href="http://www.innodata.com">Innodata Isogen </a>	הקובץ של הרל"י	Innodata	לא	אחר	02-6799566	היי-טק	לא	לא	לא	לא	כן	אחר	לא			לא	לא	לא	לא	לא		לא	לא	לא	לא	לא	לא	לא	לא	לא		לא	לא	לא										
Inpris	http://www.inprisltd.com/	http://madeinjlm.org/map/1px.png			Pre-Seed	2	Mobile				Siftech			31.7938	35.243233		V											<img src="http://madeinjlm.org/map/1px.png" style="max-height: 100px;max-width: 100px;" />	<a target="_blank" rel="nofollow" href="http://www.inprisltd.com/">Inpris</a>	הקובץ של MAdeinJLM	Inpris																																										
Intel	http://bit.ly/intelIsrael	http://www.intel.com/sites/sitewide/HAT/40recode/pix/main-logo.png	Hamarpe 10	HH	Corporate	800	Semiconductor				Intel Corporation is an American multinational semiconductor chip maker corporation headquartered in Santa Clara, California. Intel is the world's largest and highest valued semiconductor chip maker, based on revenue.			31.802601	35.211182		V											<img src="http://www.intel.com/sites/sitewide/HAT/40recode/pix/main-logo.png" style="max-height: 100px;max-width: 100px;" />	<a target="_blank" rel="nofollow" href="http://bit.ly/intelIsrael">Intel</a>	הקובץ של MAdeinJLM	Intel																																										
IPAttitude	http://WWW.ipattitude.com	https://lh3.ggpht.com/-LVIqpyIkrMw/URtS_ssBUCI/AAAAAAAAADM/cg3zbrN2gd8/s200/IPAplus+V13+.jpg	Rehov Hartoum 16, Har Hotzvim	HH		1	Software	ipattitude69@gmail.com	054-55-468-53	Dr. Sinai Yarus	IPAttitude provides patent related services to creative companies. We are small enough that we take the time to listen to your business plan and construct your IP portfolio around it.			31.8045	35.2109	Nope			Service Provider / Outsource	Quality IP services at an affordable price and service with a smile. 								<img src="https://lh3.ggpht.com/-LVIqpyIkrMw/URtS_ssBUCI/AAAAAAAAADM/cg3zbrN2gd8/s200/IPAplus+V13+.jpg" style="max-height: 100px;max-width: 100px;" />	<a target="_blank" rel="nofollow" href="http://WWW.ipattitude.com">IPAttitude</a>	הקובץ של MAdeinJLM	IPAttitude																																										
Jerusalem Startup Hub	http://www.jerusalemstartuphub.com/	http://events.startisrael.co.il/uploads/Events/295bfb5cfeec50540692a3f7dfcb237c.jpg	18 Shlomtzion Hamalka st	Center			Accelerator/Hub				Jerusalem Startup Hub is a co-working space in the heart of Jerusalem, offering its services on daily, weekly and monthly basis. High-quality networking, exposure to VC’s, hi-end legal and financial services.	https://twitter.com/jerusalemstart	https://www.facebook.com/jerusalemstartuphub	31.77912	35.222637	Nope	V											<img src="http://events.startisrael.co.il/uploads/Events/295bfb5cfeec50540692a3f7dfcb237c.jpg" style="max-height: 100px;max-width: 100px;" />	<a target="_blank" rel="nofollow" href="http://www.jerusalemstartuphub.com/">Jerusalem Startup Hub</a>	הקובץ של MAdeinJLM	Jerusalem Startup Hub																																										
Jumpspeed Ventures	http://www.jumpspeed.co	http://www.startbaseil.com/uploads/Investors/765f0345491b6afeb652327c658df289.png	2 Poalei Tzedek Talpiot	Talpiot		1	Investor	ben@jumpspeed.co		Ben Wiener	Jumpspeed Ventures, is Jerusalem's first micro-fund and product-stage accelerator. We can invest $50-$150k in companies that have more than just an idea but are still pre-market traction. Our investment and acceleration efforts with these companies will get them to and through market traction and further funding from larger investors/VCs.	@jumpspeedco	https://www.facebook.com/jumpspeedventures	31.75292	35.214958	Nope			Investor			2013	Yes	No				<img src="http://www.startbaseil.com/uploads/Investors/765f0345491b6afeb652327c658df289.png" style="max-height: 100px;max-width: 100px;" />	<a target="_blank" rel="nofollow" href="http://www.jumpspeed.co">Jumpspeed Ventures</a>	הקובץ של MAdeinJLM	Jumpspeed Ventures																																										
JVP	http://www.jvpvc.com/	http://www.jvpvc.com/images/misc/jvp_logo.jpg	Hevron Road 24,	Talpiot			Investor				Jerusalem Venture Partners (“JVP”) is one of Israel’s largest and most active venture capital funds, and was recently ranked by Preqin as one of the top ten consistently performing funds in the world. . Founded in 1993, and with over $900 million raised to date, JVP has helped build over 90 companies and has orchestrated 25 of the largest exits in the region with 14 industry sales and 11 IPOs on NASDAQ, including QlikTech, XtremIO, CyOptics, Netro Corp, Chromatis Networks, Precise Software, Cogent Communication and more.			31.766953	35.225467		V											<img src="http://www.jvpvc.com/images/misc/jvp_logo.jpg" style="max-height: 100px;max-width: 100px;" />	<a target="_blank" rel="nofollow" href="http://www.jvpvc.com/">JVP</a>	הקובץ של MAdeinJLM	JVP																																										
Kahena Digital Marketing	http://www.kahenadigital.com	http://www.kahenadigital.com/wp-content/themes/simplicity/images/logo.png	24 Derech Hevron (JVP)	Talpiot		13	Service Provider / Outsource	ari@kahenadigital.com	02-561-3127	Ari Nahmani	Inbound marketing agency	kahenadigital	https://www.facebook.com/KahenaDigital	31.766883	35.225255	Yes, we are hiring!			Other		http://www.kahenadigital.com/kahena-jobs/	2011	Yes	No			No	<img src="http://www.kahenadigital.com/wp-content/themes/simplicity/images/logo.png" style="max-height: 100px;max-width: 100px;" />	<a target="_blank" rel="nofollow" href="http://www.kahenadigital.com">Kahena Digital Marketing</a>	הקובץ של MAdeinJLM	Kahena Digital Marketing																																										
Kima group	http://www.kima.co.il	http://kima.co.il/sites/all/themes/m45_fontfolio/styles/images/vc.jpg	Mendelei Mokher Sfarim 1			6	Software	eyal@kima.co.il	02-8040000	Eyal Shlomo Levy	Kima group is about business growth with financial freedom. we provide a wide range of business services including:  Financial managment, Marketing, Large scale sites and software programing.	kimaclub	https://www.facebook.com/kimaclub	31.772269	35.220902	Yes, we are hiring!			Service Provider / Outsource	Thanks!	http://tinyurl.com/qxvwdmg	2014	Yes	Yes				<img src="http://kima.co.il/sites/all/themes/m45_fontfolio/styles/images/vc.jpg" style="max-height: 100px;max-width: 100px;" />	<a target="_blank" rel="nofollow" href="http://www.kima.co.il">Kima group</a>	הקובץ של MAdeinJLM	Kima group																																										
Kramer Electronics	http://www.kramerelectronics.com/	http://iavicanada.com/wp-content/uploads/2012/12/Logo-Kramer-Full-Color-Box.png	3 Am VeOlamo Street	HH	Big	200	Hardware		02-6544-000		Kramer Electronics is a company that designs, manufactures and distributes signal management products for analog and digital video signals, audio signals, computer graphics video signals and control signals which are used in the professional AV, broadcast and production and residential AV markets worldwide.			31.789196	35.186845		V											<img src="http://iavicanada.com/wp-content/uploads/2012/12/Logo-Kramer-Full-Color-Box.png" style="max-height: 100px;max-width: 100px;" />	<a target="_blank" rel="nofollow" href="http://www.kramerelectronics.com/">Kramer Electronics</a>	הקובץ של MAdeinJLM	Kramer Electronics																																										
Lapid LED 	http://LapidLED.com	http://d2bm3ljpacyxu8.cloudfront.net/width/296/www.lapidled.com/Lapid%20LED%20Logo%20Web%20Small.png	93 Derech Beit Lechem	Talpiot		6	Energy	Avner@lapidled.com	586337736	Avner Engel	Bringing the latest innovations in energy efficiency, we provide Israeli companies with multiple ways of reducing energy costs. Our clients receive a return of investment from 30-98% per year.		https://www.facebook.com/pages/%D7%9C%D7%A4%D7%99%D7%93-%D7%9C%D7%93/1422152374670451	31.752328	,35.218649	Yes, we are hiring!			Startup									<img src="http://d2bm3ljpacyxu8.cloudfront.net/width/296/www.lapidled.com/Lapid%20LED%20Logo%20Web%20Small.png" style="max-height: 100px;max-width: 100px;" />	<a target="_blank" rel="nofollow" href="http://LapidLED.com">Lapid LED </a>	הקובץ של MAdeinJLM	Lapid LED 																																										
Leviathan energy	http://www.leviathanenergyinc.com/	http://www.leviathanenergyinc.com/templates/leviathan/images/home_top_left.jpg	Nachal Alexander, Building 1, Suite 2, Beit Shemesh 	Bet Shemesh	Mid		Energy			Joe Van Zwaren	By utilizing the physics of fluid dynamics Leviathan has created wind-, hydro-, and wave-powered products that fundamentally change the economics of investing in alternative energy technologies in these respective markets.		https://www.facebook.com/pages/Leviathan-Energy-Renewables/101375139949587	31.71228	35.001079		?											<img src="http://www.leviathanenergyinc.com/templates/leviathan/images/home_top_left.jpg" style="max-height: 100px;max-width: 100px;" />	<a target="_blank" rel="nofollow" href="http://www.leviathanenergyinc.com/">Leviathan energy</a>	הקובץ של MAdeinJLM	Leviathan energy																																										
Lig	http://signup.justiceapp.us/	http://madeinjlm.org/map/1px.png	PICO	Talpiot	Pre-Seed	3	Mobile	Itamar Tzabari		Itamar Tzabari	Siftech			31.7939	35.243233		V											<img src="http://madeinjlm.org/map/1px.png" style="max-height: 100px;max-width: 100px;" />	<a target="_blank" rel="nofollow" href="http://signup.justiceapp.us/">Lig</a>	הקובץ של MAdeinJLM	Lig																																										
Livnat, Mayer & Co. - Attorneys At Law	http://www.LMF.co.il	https://www.facebook.com/photo.php?fbid=104735889687488&set=a.104735153020895.10410.100004532320193&type=1&theater	Jerusalem Technology Park - Building #9, Malcha	Malcha			Service Provider / Outsource	mayer@LMF.co.il		Russell Mayer	We are a law firm established in Jerusalem which focuses on providing legal services to start-up enterprises with emphasis on those originating in Jerusalem.  Our practice includes services from formation to exit, employment law, intellectual property and leases.		https://www.facebook.com/livnat.mayer?fref=ts	31.749427	35.186021	Yes, we are hiring!				1998	Yes	Yes			No			<img src="https://www.facebook.com/photo.php?fbid=104735889687488&set=a.104735153020895.10410.100004532320193&type=1&theater" style="max-height: 100px;max-width: 100px;" />	<a target="_blank" rel="nofollow" href="http://www.LMF.co.il">Livnat, Mayer & Co. - Attorneys At Law</a>	הקובץ של MAdeinJLM	Livnat, Mayer & Co. - Attorneys At Law																																										
LS Message experts	http://www.message-experts.com/	http://www.message-experts.com/wp-content/themes/Minimal/images/logo.png	Reuven 22, Jerusalem	Talpiot	Service	3	Service Provider / Outsource	fleur@message-experts.com	545283683	Fleur Hassan-Nahoum	LS Message experts is a boutique consulting firm that specializes in helping our clients develop their messages and then deliver them effectively in any setting from a one-on-one conversation, to a client/sales/investor meetings/interviews to large presentations or high-stakes speaking events. Programs are tailored to each client’s needs, often in preparation for a specific upcoming high-stakes speaking opportunity. Sessions with our experts guarantee a significant upgrade in both content and delivery style. And yes, we make it all fun.  			31.759499	35.217887													<img src="http://www.message-experts.com/wp-content/themes/Minimal/images/logo.png" style="max-height: 100px;max-width: 100px;" />	<a target="_blank" rel="nofollow" href="http://www.message-experts.com/">LS Message experts</a>	הקובץ של MAdeinJLM	LS Message experts																																										
Macademia		http://madeinjlm.org/map/1px.png	Siftech		Pre-Seed	2	Internet				Sitech			31.7936	35.243233		V											<img src="http://madeinjlm.org/map/1px.png" style="max-height: 100px;max-width: 100px;" />	<a target="_blank" rel="nofollow" href="">Macademia</a>	הקובץ של MAdeinJLM	Macademia																																										
Malam	http://www.malam.com/	http://madeinjlm.org/map/1px.png	עם ועולמו	גבעת שאול	Big,Service		Service Provider / Outsource		02-6707727	אסתר יובל				31.7941	35.2148		X											<img src="http://madeinjlm.org/map/1px.png" style="max-height: 100px;max-width: 100px;" />	<a target="_blank" rel="nofollow" href="http://www.malam.com/">Malam</a>	הקובץ של MAdeinJLM	Malam																																										
Marx Biotechnology Ltd	http://www.MarxBio.com	http://madeinjlm.org/map/1px.png	Hamitla Street 3/3, Jerusalem			2	Medical	Stephen@MarxBio.com	0528 693366	Michael Horesh	Marx Bio is entering clinical trials to develop a diagnostic kit for the early detection of Graft Versus Host Disease (GVHD). 			31.800868	35.224078	Nope			Startup	Marx Bio has completed animal trials and is now entering Phase 1 clinical trials. The technology is supported by 3 strong patents and a paper published in a peer journal. Founded in 2011 and financed through seed investment, the company will create a prototype over the next twelve months		2011	Yes	Yes				<img src="http://madeinjlm.org/map/1px.png" style="max-height: 100px;max-width: 100px;" />	<a target="_blank" rel="nofollow" href="http://www.MarxBio.com">Marx Biotechnology Ltd</a>	הקובץ של MAdeinJLM	Marx Biotechnology Ltd																																										
Matrix	www.matrix.com	http://madeinjlm.org/map/1px.png	קרית המדע 11	הר חוצבים	Big,Service		Service Provider / Outsource		02-5888600	משה אטיאס	החברה מעסיקה כ- 6,300 מקצועני ,IT. מטריקס עוסקת בביצוע פרויקטי אינטגרציה, פיתוח ויישום טכנולוגיות, פתרונות ומוצרי תוכנה, ייצוג ושיווק מוצרי תוכנה מובילים מהעולם, שירותי תשתית, ייעוץ, ,Offshore מיקור חוץ, בדיקות, הדרכה והטמעה, ופתרונות חומרה מובילים. מטריקס מדורגת כחברה שהכי כדאי לעבוד בה בתחום שירותי IT, ע"פי סקר BDI. - מטריקס נסחרת בבורסה לניירות ערך בת"א במדד תל אביב 100 ונסחרת גם במדד היוקרתי של החברות הגדולות המחלקות דיבידנד - תל דיב 20. - מחזור המכירות של מטריקס במהלך שנת 2011הגיע ל- 1.75 מיליארד שקל, הרווח הנקי הגיע ל- 96 מיליון שקל. - חברות המחקר מדרגות את מטריקס במקום הראשון בענף שירותי התוכנה בישראל, STKI מדרגת את מטריקס בראש זו השנה השביעית ו IDC מדרגת את מטריקס ראשונה זו השנה הרביעית ברציפות.						X											<img src="http://madeinjlm.org/map/1px.png" style="max-height: 100px;max-width: 100px;" />	<a target="_blank" rel="nofollow" href="www.matrix.com">Matrix</a>	הקובץ של MAdeinJLM	Matrix																																										
Mayorita	https://www.mayorita.com/	https://www.mayorita.com/assets/logo-3a9d667482a6b643dd113604423ad3a1.png	Jerusalem		Young	2	Software	contact@mayorita.com		Ran Kramer	 Mayorita is a reliable and objective way to hear the voice of the crowd and to make your own voice influence others. Whether it is a fact, opinion or advise that you seek, Mayorita is there for you			31.804753	35.150789		X											<img src="https://www.mayorita.com/assets/logo-3a9d667482a6b643dd113604423ad3a1.png" style="max-height: 100px;max-width: 100px;" />	<a target="_blank" rel="nofollow" href="https://www.mayorita.com/">Mayorita</a>	הקובץ של MAdeinJLM	Mayorita																																										
Medinol 	http://www.medinol.com/	http://madeinjlm.org/map/1px.png	Har Hotzvim	HH			Medical		03-7679000	תמרה שאגר	סטנטים			31.809	35.2235		V											<img src="http://madeinjlm.org/map/1px.png" style="max-height: 100px;max-width: 100px;" />	<a target="_blank" rel="nofollow" href="http://www.medinol.com/">Medinol </a>	הקובץ של MAdeinJLM	Medinol 																																										
Merjerz	http://www.merjerz.com	http://www.merjerz.com/assets/logo_m-425c009dd205d0370b1ec90d11fa72a0.png	Hamaapilim 10	Katamon			Internet	info@merjerz.com		Arye Schreiber	Merjerz makes M&A succeed, using the wisdom of crowds. Help the companies you care about make the right moves by joining the crowd of Merjerz mavericks.	@merjerz	https://www.facebook.com/Merjerz	31.7629	35.2061	Nope			Startup									<img src="http://www.merjerz.com/assets/logo_m-425c009dd205d0370b1ec90d11fa72a0.png" style="max-height: 100px;max-width: 100px;" />	<a target="_blank" rel="nofollow" href="http://www.merjerz.com">Merjerz</a>	הקובץ של MAdeinJLM	Merjerz																																										
Minicom	http://www.minicom.com/		הרטום 16, ת.ד. 45048	HH					02-5359618	מוטי שולק	פתרונות ניהול IT			31.809	35.2235	Nope												<img src="" style="max-height: 100px;max-width: 100px;" />	<a target="_blank" rel="nofollow" href="http://www.minicom.com/">Minicom</a>	הקובץ של הרל"י	minicom	כן	אתר אינטרנט	02-5359693	תקשורת	לא	לא	לא	לא	כן	אחר	לא			לא	לא	לא	לא	לא		לא	לא	לא	לא	לא	לא	לא	לא	לא		לא	לא	לא										
Mobichem	http://www.mobichem-sci.com		הרטום 19, ת.ד.45390	HH		7			02-8560324	אולג ברזין	ייצור משחות לתאורה אלקטרוניתללקוחות באיטליה, שוויץ, דרא"פ ורוסיה+פרוייקטים עבור חברות אחרות ו"המדען הראשי"			31.809	35.2235	Yes, we are hiring!												<img src="" style="max-height: 100px;max-width: 100px;" />	<a target="_blank" rel="nofollow" href="http://www.mobichem-sci.com">Mobichem</a>	הקובץ של הרל"י	Mobichem	לא	אחר	02-5902602	היי-טק	לא	כן	כן	לא	כן	הרחבת עסק בירושלים	לא	אולג ברזין	513222091	לא	לא	לא	כן	לא		לא	לא	לא	לא	לא	לא	לא	לא	כן		לא	כן	כן				7						
Mobileye	http://www.mobileye.com/	http://www.mobileye.com/wp-content/themes/mobileye/images/logo.gif	Har Hotzvim	HH	Big 	250	Software				Using sophisticated vision algorithms, Mobileye’s collision avoidance technology is able to ‘interpret’ a scene in real-time and provide drivers with an immediate evaluation based on its analysis. Automakers are now adopting this technology into their rapidly expanding safety feature applications known as Advanced Driver Assistance Systems (ADAS).			31.804734	35.213252		V											<img src="http://www.mobileye.com/wp-content/themes/mobileye/images/logo.gif" style="max-height: 100px;max-width: 100px;" />	<a target="_blank" rel="nofollow" href="http://www.mobileye.com/">Mobileye</a>	הקובץ של MAdeinJLM	Mobileye																																										
MyClozz		http://madeinjlm.org/map/1px.png	PICO	Talpiot	Pre-Seed	2	Internet				Sitech			31.793519	35.243282		V											<img src="http://madeinjlm.org/map/1px.png" style="max-height: 100px;max-width: 100px;" />	<a target="_blank" rel="nofollow" href="">MyClozz</a>	הקובץ של MAdeinJLM	MyClozz																																										
Ness		http://madeinjlm.org/map/1px.png		HH	Big,Service		Service Provider / Outsource										X											<img src="http://madeinjlm.org/map/1px.png" style="max-height: 100px;max-width: 100px;" />	<a target="_blank" rel="nofollow" href="">Ness</a>	הקובץ של MAdeinJLM	Ness																																										
NowForce	http://www.nowforce.com/	http://www.nowforce.com/wp-content/themes/Nowforce/images/logo.png	6 Hartum, HH	HH	Mid		Software				Whether you’re looking to reduce response times, create a safer environment for the people you serve, or optimize incident management, NowForce’s suite of emergency response software and mobile dispatch apps will help your organization improve outcomes.			31.802637	35.213388		?											<img src="http://www.nowforce.com/wp-content/themes/Nowforce/images/logo.png" style="max-height: 100px;max-width: 100px;" />	<a target="_blank" rel="nofollow" href="http://www.nowforce.com/">NowForce</a>	הקובץ של MAdeinJLM	NowForce																																										
Omrix	http://www.omrix.com	http://madeinjlm.org/map/1px.png		HH			pharma		03-7707799	Galia Eckstein	דבק ביולוגי			31.809	35.2235		V											<img src="http://madeinjlm.org/map/1px.png" style="max-height: 100px;max-width: 100px;" />	<a target="_blank" rel="nofollow" href="http://www.omrix.com">Omrix</a>	הקובץ של MAdeinJLM	Omrix																																										
Ophir optical	http://www.ophiropt.com/	http://www.ophiropt.com/user_files/logos/ophir_logo.gif	Science-based industrial Park, Har Hotzvim	HH	Big		Hardware				Ophir Optronics is a global leader in precision infrared optics, photonics instrumentation and 3D non-contact measurement equipment. The company develops, manufactures and markets top quality products that are based on the most advanced technologies and are renowned for their quality and reliability.			31.80294	35.209753		V											<img src="http://www.ophiropt.com/user_files/logos/ophir_logo.gif" style="max-height: 100px;max-width: 100px;" />	<a target="_blank" rel="nofollow" href="http://www.ophiropt.com/">Ophir optical</a>	הקובץ של MAdeinJLM	Ophir optical																																										
Oramed	http://oramed.com/	http://madeinjlm.org/map/1px.png	כפר ההיי-טק 626 3C, ת.ד. 39098	Givat Ram			Medical		547924438	אביבה שרמן	developing proprietary technology for the oral delivery of drugs			31.7941	35.2148		?											<img src="http://madeinjlm.org/map/1px.png" style="max-height: 100px;max-width: 100px;" />	<a target="_blank" rel="nofollow" href="http://oramed.com/">Oramed</a>	הקובץ של MAdeinJLM	Oramed																																										
Oridion	http://www.oridion.com		המרפא 7, בניין 5	HH			pharma		02-5899147	יעקב בוביס	פיתוח מכשור רפואי המעצים את בטיחות החולים באמצעות ניטור הפחמן הדו- חמצני בנשימת החולה			31.809	35.2235	Yes, we are hiring!												<img src="" style="max-height: 100px;max-width: 100px;" />	<a target="_blank" rel="nofollow" href="http://www.oridion.com">Oridion</a>	הקובץ של הרל"י	oridion medical	כן	אחר	02-5825873	ביו-טק		לא	כן	לא	לא	הרחבת עסק בירושלים	לא		511197493	כן	לא	לא	לא	כן		לא	לא	לא	לא	לא	לא	לא	לא	כן		לא	לא	לא										
Photocell			כפר ההיטק, קמפוס גבעת רם, ת.ד. 39158	Givat Ram		3		Ilan@psphotocell.com	054-2520030	אילן לוי	פיתוח של תאים סולריים בטכנולוגיה חדשנית			31.782	35.2155	Nope												<img src="" style="max-height: 100px;max-width: 100px;" />	<a target="_blank" rel="nofollow" href="">Photocell</a>	הקובץ של הרל"י	Photocell	לא	אחר	08-8506118	ביו-טק	לא	לא	כן	לא	כן	אחר	לא	אילן לוי	514696095	לא	לא	כן	לא	לא		לא	לא	לא	לא	לא	לא	לא	לא	לא		לא	כן	כן		2	1							
PICO	http://www.picojerusalem.com/	http://madeinjlm.org/wp-content/uploads/2013/07/logopico.png	Poale Tzedek 2, 4th floor, Talpiot, 	Talpiot			Accelerator/Hub				PICO is an exciting new concept in co-working shared space located in Talpiot, Jerusalem. In order to effect a sound ‘ground roots’ change in the economic reality of the neighborhood, we have created the eco-system to truly imbibe the area with a new paradigm in business development.  			31.752962	35.21506		V											<img src="http://madeinjlm.org/wp-content/uploads/2013/07/logopico.png" style="max-height: 100px;max-width: 100px;" />	<a target="_blank" rel="nofollow" href="http://www.picojerusalem.com/">PICO</a>	הקובץ של MAdeinJLM	PICO																																										
Pilat Media	http://www.pilatmedia.com/	http://madeinjlm.org/map/1px.png	Har Hotzvim	HH	Mid	30	Software				Pilat Media focuses on business management for media operations. Our product suites help top tier broadcasters generate billions of dollars in revenue.	Pilat_Media		31.802815	35.209623		V											<img src="http://madeinjlm.org/map/1px.png" style="max-height: 100px;max-width: 100px;" />	<a target="_blank" rel="nofollow" href="http://www.pilatmedia.com/">Pilat Media</a>	הקובץ של MAdeinJLM	Pilat Media																																										
Planet of the Apps	http://poa-media.com	http://www.poa-media.com/images/site_new.jpg	Communication Center, Neve-Ilan	Neve Ilan		6	mobile	ben@poa-media.com		Ben Engel-Kacen	Planet of the Apps design, develop and publish casual social games for mobile platforms.    The company bring innovation to the casual social gaming sphere through creative business models and unique user experience. 	@Poamediagroup	https://www.facebook.com/POAgroup	31.80705	35.08647	Yes, we are hiring!			Startup		http://www.ilventure.co/planet-of-the-apps	2013	No	Yes			Yes	<img src="http://www.poa-media.com/images/site_new.jpg" style="max-height: 100px;max-width: 100px;" />	<a target="_blank" rel="nofollow" href="http://poa-media.com">Planet of the Apps</a>	הקובץ של MAdeinJLM	Planet of the Apps																																										
POD	http://smartproductdiscovery.com/	http://madeinjlm.org/map/1px.png			Pre-Seed	30	Mobile				Pod is a unique product discovery service that helps you make the right buying decisions. No more scrolling endless reviews. Intelligent filters: read what you need. 						?											<img src="http://madeinjlm.org/map/1px.png" style="max-height: 100px;max-width: 100px;" />	<a target="_blank" rel="nofollow" href="http://smartproductdiscovery.com/">POD</a>	הקובץ של MAdeinJLM	POD																																										
Powermat	http://powermat.com/	http://upload.wikimedia.org/wikipedia/en/6/66/Powermat_Technologies_Comp._logo.png	Neve ilan	Neve ilan	Big 	100	Hardware		02-9950500	דוד אבר	Powermat Technologies Ltd. is a developer of wireless energy transfer solutions for consumers, OEM and public places. Retail products are sold worldwide under the brand Duracell Powermat. The company's inductive charging technology has been adopted by the Power Matters Alliance and is the platform adopted by Duracell, General Motors, Starbucks and AT&T.פיתוח משטח טעינה למכשירים אלקטרונים קטנים. הטכנולוגיה מאפשרת למכשירים אלקטרונים כגון: טלפונים חכמים, נגני MP3 ומשחקים אלקטרונים להיטען ללא השימוש בכבלים לטעינה			31.808158	35.081069	Nope	?											<img src="http://upload.wikimedia.org/wikipedia/en/6/66/Powermat_Technologies_Comp._logo.png" style="max-height: 100px;max-width: 100px;" />	<a target="_blank" rel="nofollow" href="http://powermat.com/">Powermat</a>	הקובץ של MAdeinJLM	Powermat																																										
Presentense	http://presentense.org/	http://presentense.org/files/profile_images/ptstar_0.jpg?1382425943	14 Hillel Street, 4th floor	Center			Accelerator/Hub				PresenTense’s Jerusalem Hub hosts a social workspace for entrepreneurs and freelancers, locals and travelers in need of   a productive place to work or meet. PresenTense’s hub offers open desks,  offices, office hours, a conference room, a classroom, conversation clusters, and an environment that is inspiring and animating.	https://twitter.com/PresenTense	https://www.facebook.com/presentense	31.780386	35.217487		V											<img src="http://presentense.org/files/profile_images/ptstar_0.jpg?1382425943" style="max-height: 100px;max-width: 100px;" />	<a target="_blank" rel="nofollow" href="http://presentense.org/">Presentense</a>	הקובץ של MAdeinJLM	Presentense																																										
Qualitest	http://www.qualitestgroup.com/	https://pbs.twimg.com/profile_images/112737881/QualiTest_Logo_Twitter.gif	המרפא 8	HH	Big,Service		Service Provider / Outsource				QualiTest Group is the world's second largest independent QA and software testing company. 			31.802865	35.211182		X											<img src="https://pbs.twimg.com/profile_images/112737881/QualiTest_Logo_Twitter.gif" style="max-height: 100px;max-width: 100px;" />	<a target="_blank" rel="nofollow" href="http://www.qualitestgroup.com/">Qualitest</a>	הקובץ של MAdeinJLM	Qualitest																																										
Quickcode	www.quickode.com	http://www.quickode.com/public/logo_black.jpg	2nd floor, the Tower, Malcha technology park, Jerusalem	Malcha		18	Service Provider / Outsource	yoni@quickode.com	054-6968896	Yoni Colb	Quickode Ltd. is a mobile software firm developing applications and platforms and providing end to end service from wireframes and specification to amazing applications as well as server-side solutions, web development and more.	@Quickode	https://www.facebook.com/pages/Quickode-Ltd/198740810145469	31.749847	35.18633	Yes, we are hiring!			Service Provider / Outsource		http://quickode.com/en/careers	2011	Yes	No			No	<img src="http://www.quickode.com/public/logo_black.jpg" style="max-height: 100px;max-width: 100px;" />	<a target="_blank" rel="nofollow" href="www.quickode.com">Quickcode</a>	הקובץ של MAdeinJLM	quickode Ltd.																																										
RadWare	http://www.radware.com/	http://www.radware.com/images/Rad_logo.gif?Lo0P=1b3b61d92e4e927c83b808d20b7e5d613271	Ha'Marpe 8, Har-Hotzvim	HH	Corporate	150	Software		052-6111091	רועי זיסאפל	Radware, the global leader in integrated application delivery and application security solutions for business-smart networking, assures the complete availability, performance, and security of business-critical applications for enterprises and carriers worldwide. 			31.80375	35.211135		V											<img src="http://www.radware.com/images/Rad_logo.gif?Lo0P=1b3b61d92e4e927c83b808d20b7e5d613271" style="max-height: 100px;max-width: 100px;" />	<a target="_blank" rel="nofollow" href="http://www.radware.com/">RadWare</a>	הקובץ של MAdeinJLM	RadWare																																										
RoadMetric	http://www.roadmetric.com/	http://madeinjlm.org/map/1px.png	Neve Ilan	Neve Ilan	Mid		Software				RoadMetric produces innovative tools for effective traffic law enforcement. 			31.808218	35.081039		?											<img src="http://madeinjlm.org/map/1px.png" style="max-height: 100px;max-width: 100px;" />	<a target="_blank" rel="nofollow" href="http://www.roadmetric.com/">RoadMetric</a>	הקובץ של MAdeinJLM	RoadMetric																																										
Sandvine	http://www.sandvine.com		המרפא 12 ת.ד. 45207	HH			software		02-5400980	איציק וויינגרטן	פיתוח תוכנה			31.809	35.2235	Yes, we are hiring!												<img src="" style="max-height: 100px;max-width: 100px;" />	<a target="_blank" rel="nofollow" href="http://www.sandvine.com">Sandvine</a>	הקובץ של הרל"י	sandvine	כן	אחר	02-5400981	היי-טק	לא	לא	כן	לא	כן	הרחבת עסק בירושלים	לא	לורנס רובין	513476382	לא	לא	לא	לא	כן		לא	לא	לא	לא	לא	לא	לא	לא	לא		לא	כן	כן										
Satec-Global	http://www.satec-global.com	http://www.satec-global.com.au/images/logo-satec-global.jpg	7 Hamarpe St. Har Hotzvim Industrial Park	HH		8	software		02-5411000	גידי רוזנברג	SATEC is a global leader in the research, development and manufacturing of energy management solutions.		https://www.facebook.com/SATEC.Global	31.802687	35.211159	Nope												<img src="http://www.satec-global.com.au/images/logo-satec-global.jpg" style="max-height: 100px;max-width: 100px;" />	<a target="_blank" rel="nofollow" href="http://www.satec-global.com">Satec-Global</a>	הקובץ של הרל"י	Satec	כן	בחר מקור	02-5812371	היי-טק	לא	כן	כן	לא	כן	הרחבת עסק בירושלים	לא		51123460	לא	לא	לא	כן	כן		כן	כן	לא	לא	לא	לא	לא	כן	לא		לא	כן	כן		5	3							
Servision 	http://www.servision.net/	http://www.servision.net/Pages/FileManager/FileManager/UserFiles/images/GlobalElements/logo.gif	Kiryat Mada 11	HH	Mid	40	Software	gtahan@servision.net	972-2-535-0000	 Gidon Tahan (Founder, Chairman & CEO) 	manufactures professional video recording and transmission systems for the security and transportation sectors. SerVision Plc (LSE: ^SEV) is traded on the AIM market of the London Stock Exchange. 			31.802428	35.209165		?											<img src="http://www.servision.net/Pages/FileManager/FileManager/UserFiles/images/GlobalElements/logo.gif" style="max-height: 100px;max-width: 100px;" />	<a target="_blank" rel="nofollow" href="http://www.servision.net/">Servision </a>	הקובץ של MAdeinJLM	Servision 																																										
ShapeDo	https://shapedo.com	http://www.shapedo.com/img/logo-medium.png	Nomads		PreSeed	2	Internet	Ari@shapedo.com	972524858458	Ari Isaacs	Git based project management for 3D projects	shape_do	https://www.facebook.com/shapedo?fref=ts	31.770354	35.216757				Startup			2014	No	Yes				<img src="http://www.shapedo.com/img/logo-medium.png" style="max-height: 100px;max-width: 100px;" />	<a target="_blank" rel="nofollow" href="https://shapedo.com">ShapeDo</a>	הקובץ של MAdeinJLM	ShapeDo																																										
Sherutnet	https://www.sherut.net/	http://www.sherut.net/Content/AppIcons/Logo_256.png	Kiryat Anavim	Other	Young	5	Software				social network for customer service		SherutNet	31.810187	35.120841		X											<img src="http://www.sherut.net/Content/AppIcons/Logo_256.png" style="max-height: 100px;max-width: 100px;" />	<a target="_blank" rel="nofollow" href="https://www.sherut.net/">Sherutnet</a>	הקובץ של MAdeinJLM	Sherutnet																																										
Siemens		http://madeinjlm.org/map/1px.png	Har Hotzvim	HH	Corporate		Medical							31.80284	35.208932		X											<img src="http://madeinjlm.org/map/1px.png" style="max-height: 100px;max-width: 100px;" />	<a target="_blank" rel="nofollow" href="">Siemens</a>	הקובץ של MAdeinJLM	Siemens																																										
Siftech	http://www.siftech.org.il/	http://madeinjlm.org/wp-content/uploads/2013/04/SifTech-logo-1-300x240.png	 Hebrew University of Jerusalem, Har Hatzofim Capmus. Mexico building 91072				Accelerator/Hub				SifTech is the first Jerusalem-based Startup Accelerator, established in 2012 in the Hebrew University. As of today, 20 start-ups have launched through two classes of the Accelerator.			31.7935	35.243233		V											<img src="http://madeinjlm.org/wp-content/uploads/2013/04/SifTech-logo-1-300x240.png" style="max-height: 100px;max-width: 100px;" />	<a target="_blank" rel="nofollow" href="http://www.siftech.org.il/">Siftech</a>	הקובץ של MAdeinJLM	Siftech																																										
SIMPLEx	http://thesimplex.co/	http://madeinjlm.org/map/1px.png					Software				We envision a world where any person from any background will be able to learn how to program in every state-of-the-art programming language available. We're 8 young entrepreneurs from Jerusalem area, all former students of MEET - Middle East Education through Technology																	<img src="http://madeinjlm.org/map/1px.png" style="max-height: 100px;max-width: 100px;" />	<a target="_blank" rel="nofollow" href="http://thesimplex.co/">SIMPLEx</a>	הקובץ של MAdeinJLM	SIMPLEx																																										
Sintec Media	http://www.sintecmedia.com/	http://www.yedatech.co.il/rep/data/company/logo/medium/SintecMedia.jpg	8 Am Ve`Olamo St. Har nof	Other	Mid	100	Software	sales@sintecmedia.com	02-6515122		SintecMedia, the leading provider of media business management solutions, has over 300 client sites around the world.SintecMedia augmented its comprehensive solutions for broadcasters, Pay TV networks, multichannel operators and station groups world-wide. 			31.789397	35.186287	TRUE												<img src="http://www.yedatech.co.il/rep/data/company/logo/medium/SintecMedia.jpg" style="max-height: 100px;max-width: 100px;" />	<a target="_blank" rel="nofollow" href="http://www.sintecmedia.com/">Sintec Media</a>	הקובץ של MAdeinJLM	Sintec Media																																										
Sitehood	http://www.sitehood.co.il/	http://www.sitehood.co.il/static/images/design/LogoENG.png	hataasya, 93825 Talpiot	South	Young	5	Internet		02-633-6160				SiteHood	31.748642	35.213303													<img src="http://www.sitehood.co.il/static/images/design/LogoENG.png" style="max-height: 100px;max-width: 100px;" />	<a target="_blank" rel="nofollow" href="http://www.sitehood.co.il/">Sitehood</a>	הקובץ של MAdeinJLM	Sitehood																																										
SkySaver	www.skysaverusa.com	http://www.skysaverusa.com/wp-content/themes/skysaver/images/skysaver-logo.gif	Hamarpe 1, Har Hotzvim	HH		30	Hardware	idob@skysaverusa.com	800801801	Ido Barnoy	Develop and manufacture rescue devices from high rise buildings in the event of an emergency.	SkySaverUSA	https://www.facebook.com/SkySaverUSA?ref=hl	31.801699	35.2116545	Nope			Startup									<img src="http://www.skysaverusa.com/wp-content/themes/skysaver/images/skysaver-logo.gif" style="max-height: 100px;max-width: 100px;" />	<a target="_blank" rel="nofollow" href="www.skysaverusa.com">SkySaver</a>	הקובץ של MAdeinJLM	SkySaver																																										
SlideIT	http://mobiletextinput.com	http://androidcandy.files.wordpress.com/2011/11/slideit-keyboard.png	Yam Suf 6, Jerusalem	Other	Young	7	Mobile	 Nissim Benbenisty - nissim@mobiletextinput.com Beny Zemmour - zemmour@mobiletextinput.com			SlideIT is the world’s best text entry solution for touch-screen devices. It's a quick, efficient and enjoyable way to input text on your touchscreen mobile or tablet.			31.801105	35.223112													<img src="http://androidcandy.files.wordpress.com/2011/11/slideit-keyboard.png" style="max-height: 100px;max-width: 100px;" />	<a target="_blank" rel="nofollow" href="http://mobiletextinput.com">SlideIT</a>	הקובץ של MAdeinJLM	SlideIT																																										
Snapget	http://www.ilventure.co/snapget1	http://www.snapgetapp.com/images/logo.jpg	Siftech		Pre-Seed		Mobile				Seen a garment you love? Now you can snap a pic with your smartphone and snapget will tell you exactly where to buy it, or similar items, in seconds! 			31.79692	35.243233													<img src="http://www.snapgetapp.com/images/logo.jpg" style="max-height: 100px;max-width: 100px;" />	<a target="_blank" rel="nofollow" href="http://www.ilventure.co/snapget1">Snapget</a>	הקובץ של MAdeinJLM	Snapget																																										
snapkeys	http://www.snapkeys.com	http://www.snapkeys.com/images/logo-letsnap.png			Young	5	Mobile							31.764315	35.189871													<img src="http://www.snapkeys.com/images/logo-letsnap.png" style="max-height: 100px;max-width: 100px;" />	<a target="_blank" rel="nofollow" href="http://www.snapkeys.com">snapkeys</a>	הקובץ של MAdeinJLM	snapkeys																																										
SoftPublisher	http://www.softpublisher.com/	http://www.softpublisher.com/img/logo.png	Bet Hakerem POB 3749	Other	Young		Internet				Software Distribution Network for Browser Addons, Mobile & Desktop Applications			31.777541	35.189803													<img src="http://www.softpublisher.com/img/logo.png" style="max-height: 100px;max-width: 100px;" />	<a target="_blank" rel="nofollow" href="http://www.softpublisher.com/">SoftPublisher</a>	הקובץ של MAdeinJLM	SoftPublisher																																										
SQLink	http://eng.sqlink.com/	http://madeinjlm.org/map/1px.png	Har Hotzvim	HH	Service		Software				SQLink was established in 1994 as a software house and has since grown into a group of companies providing end to end IT services under a single roof. The Group employs approximately 700 computer specialists. 			31.802785	35.209683													<img src="http://madeinjlm.org/map/1px.png" style="max-height: 100px;max-width: 100px;" />	<a target="_blank" rel="nofollow" href="http://eng.sqlink.com/">SQLink</a>	הקובץ של MAdeinJLM	SQLink																																										
Star3DMe	http://star3dme.com/	http://star3dme.com/			Pre-Seed	1	Internet			, Kenneth Dukofsky																		<img src="http://star3dme.com/" style="max-height: 100px;max-width: 100px;" />	<a target="_blank" rel="nofollow" href="http://star3dme.com/">Star3DMe</a>	הקובץ של MAdeinJLM	Star3DMe																																										
Starling	http://playstarling.com	https://launchrock-assets.s3.amazonaws.com/logo-files/HXAOUKOY_1364922028346.png?_=1	Poalei Tzedek 2	Talpiot		3	Mobile	dan@playstarling.com	+972 547459832	Dan Bystritsky	Enjoy a better music experience! Starling is a social game for venues based on the music experience. You play and compete with other people, choosing the music at your favorite venue. When you leave the venue you get to maintain the music experience, being able to log on and listen to the music played there. With Starling it always your song!!! 		https://www.facebook.com/playstarling	31.75299	35.214958	Nope			Startup									<img src="https://launchrock-assets.s3.amazonaws.com/logo-files/HXAOUKOY_1364922028346.png?_=1" style="max-height: 100px;max-width: 100px;" />	<a target="_blank" rel="nofollow" href="http://playstarling.com">Starling</a>	הקובץ של MAdeinJLM	Starling																																										
Sunshield Ltd	www.sunshieldgroup.com	http://sunshield.co.il	111 haztav St. Moshav Ora	Metro		1-700-500-549	Energy	contact@israsun.com		Uriel Nathan	Sunshield designs, markets and installs window film products:  Sunshield films maximise energy efficiency in buildiings by rejecting the sun's heat energy(IR)  SecurityShield Films protect glass from catastrophic events such as bomb blasts and collateral damage		https://www.facebook.com/pages/sunshield-%D7%9E%D7%92%D7%9F-%D7%A9%D7%9E%D7%A9-%D7%91%D7%A2%D7%9E/119850598041329?ref=br_tf	31.751927	35.149148	Nope			Service Provider / Outsource	Thanks and Regards								<img src="http://sunshield.co.il" style="max-height: 100px;max-width: 100px;" />	<a target="_blank" rel="nofollow" href="www.sunshieldgroup.com">Sunshield Ltd</a>	הקובץ של MAdeinJLM	Sunshield Ltd																																										
Teramout	www.teramount.com	http://static.squarespace.com/static/51bea74ce4b020693fe29822/t/52f7ca01e4b056ca2bfce2bb/1392193827168/?format=1500w	Givat Ram	Givat Ram			Optics	avi.israel@teramount.com	+972 2-624-9712	Avi Israel	Founded last July and based in Jerusalem, Teramount operates in a new and exiting branch of electronics - Photonic integrated circuits (PIC). This technology merges the two most successful industries of this generation, silicon based electronics and optical communication into ultra-wideband chips. Our company tackles perhaps the biggest obstacle of PIC based devices, the lack of a scalable, electronics like, model for packaging and assembly.	TeramountLTD		31.767207	35.19762	Yes, we are hiring!			Startup		http://www.teramount.com/jobs/	2013	No	Yes				<img src="http://static.squarespace.com/static/51bea74ce4b020693fe29822/t/52f7ca01e4b056ca2bfce2bb/1392193827168/?format=1500w" style="max-height: 100px;max-width: 100px;" />	<a target="_blank" rel="nofollow" href="www.teramount.com">Teramout</a>	הקובץ של MAdeinJLM	Teramout																																										
Terra Venture Partners	http://www.terravp.com	http://www.terravp.com/upload/design/logo.jpg	41 Harlap Street	Other			Investor				Terra Venture Partners is the leading Israeli multi-stage fund investing in and incubating novel clean technology companies.			31.768365	35.211096		V											<img src="http://www.terravp.com/upload/design/logo.jpg" style="max-height: 100px;max-width: 100px;" />	<a target="_blank" rel="nofollow" href="http://www.terravp.com">Terra Venture Partners</a>	הקובץ של MAdeinJLM	Terra Venture Partners																																										
The Elegant Monkeys	https://www.facebook.com/ElegantMonkeys?ref=br_rs	https://fbcdn-sphotos-a-a.akamaihd.net/hphotos-ak-ash3/t1/1463997_377309819072058_2132379666_n.png	no address				Mobile	maayanyaz@windowslive.com		Maayan Yazdi	We're a startup company, currently working hard on the app that's going to change the world & the way you play :)		https://www.facebook.com/ElegantMonkeys?ref=br_rs			Yes, we are hiring!			Startup		Mobile Developers		Yes	Yes				<img src="https://fbcdn-sphotos-a-a.akamaihd.net/hphotos-ak-ash3/t1/1463997_377309819072058_2132379666_n.png" style="max-height: 100px;max-width: 100px;" />	<a target="_blank" rel="nofollow" href="https://www.facebook.com/ElegantMonkeys?ref=br_rs">The Elegant Monkeys</a>	הקובץ של MAdeinJLM	The Elegant Monkeys																																										
ThetaRay	http://thetaray.com/	http://www.geektime.co.il/wp-content/uploads/2013/08/thetaray.png	Hevron Road 24	JVP	Young	5	Software	Mark Gazit		Mark Gazit	ThetaRay’s Hyper-dimensional Big Data Analytics™ solution protect against unknown zero-day threats and APT attacks that target critical infrastructure.	ThetaRayTeam		31.76704	35.225121													<img src="http://www.geektime.co.il/wp-content/uploads/2013/08/thetaray.png" style="max-height: 100px;max-width: 100px;" />	<a target="_blank" rel="nofollow" href="http://thetaray.com/">ThetaRay</a>	הקובץ של MAdeinJLM	ThetaRay																																										
Tipengo	https://www.tipengo.com/	https://www.tipengo.com/img/new/logo.png	Samuel hanagid 25, city center	Center			Mobile	tipengo.alon@gmail.com	528655527	alon osman	Tipengo is an artificial intelligence social app based on intelligent crowd sourcing aimed to put people in the right places with the right crowd.		https://www.facebook.com/Tipengo	31.778435	35.215151	Nope			Service Provider / Outsource									<img src="https://www.tipengo.com/img/new/logo.png" style="max-height: 100px;max-width: 100px;" />	<a target="_blank" rel="nofollow" href="https://www.tipengo.com/">Tipengo</a>	הקובץ של MAdeinJLM	Tipengo																																										
Tok Media	http://www.tok-media.com	http://tok-media.com.previewdns.com/wp-content/uploads/2012/02/logo.png	Hevron Road 24	JVP	Young	10	Internet	Ron Patreanu						31.767026	35.225427													<img src="http://tok-media.com.previewdns.com/wp-content/uploads/2012/02/logo.png" style="max-height: 100px;max-width: 100px;" />	<a target="_blank" rel="nofollow" href="http://www.tok-media.com">Tok Media</a>	הקובץ של MAdeinJLM	Tok Media																																										
Umoove	http://umoove.me/	http://s3.amazonaws.com/crunchbase_prod_assets/assets/images/resized/0024/2345/242345v1-max-250x250.png	Har Hotzvim	HH	Mid	10	Mobile	Tuvia Elbaum	054-7000043	Tuvia Elbaum	Umoove operates your mobile through head movements alone 			31.802775	35.209683	Nope												<img src="http://s3.amazonaws.com/crunchbase_prod_assets/assets/images/resized/0024/2345/242345v1-max-250x250.png" style="max-height: 100px;max-width: 100px;" />	<a target="_blank" rel="nofollow" href="http://umoove.me/">Umoove</a>	הקובץ של MAdeinJLM	Umoove																																										
Utopia		http://madeinjlm.org/map/1px.png	Siftech		Young	2	Internet				Siftech			31.79792	35.243233													<img src="http://madeinjlm.org/map/1px.png" style="max-height: 100px;max-width: 100px;" />	<a target="_blank" rel="nofollow" href="">Utopia</a>	הקובץ של MAdeinJLM	Utopia																																										
veestars	http://veestars.com	http://madeinjlm.org/map/1px.png	Migdal Halevanon 19 Modi'in	Modi'in			Mobile	tovi@veestars.com	546647707	Dimant-Zamir Tovi	VeeStars is an app that offers customized support, guidance, encouragement, reinforcement,  and personal target management, without the need to depend on the schedule of a friend or a psychologist.					Yes, we are hiring!			Startup									<img src="http://madeinjlm.org/map/1px.png" style="max-height: 100px;max-width: 100px;" />	<a target="_blank" rel="nofollow" href="http://veestars.com">veestars</a>	הקובץ של MAdeinJLM	veestars																																										
Verisense	http://verisense.co.il	http://verisense.co.il/images/logo.jpg	19 Hartom, Har Hotzvim	HH		61	Semiconductor	lozowick@verisense.co.il	02-5716137	Pini Lozowick	Verisense, is the leading ASIC And FPGA design services company based in Israel. Services range from full turn-key solutions, to any aspect of the design including architecture, design, verification, backend services, post silicon system validation, accelerators, and board design.			31.803841	35.208135	Yes, we are hiring!			Service Provider / Outsource									<img src="http://verisense.co.il/images/logo.jpg" style="max-height: 100px;max-width: 100px;" />	<a target="_blank" rel="nofollow" href="http://verisense.co.il">Verisense</a>	הקובץ של MAdeinJLM	Verisense																																										
VI	http://vi-app.com	http://madeinjlm.org/map/1px.png					Mobile				VI is a social platform that brings personality into our online experience.																	<img src="http://madeinjlm.org/map/1px.png" style="max-height: 100px;max-width: 100px;" />	<a target="_blank" rel="nofollow" href="http://vi-app.com">VI</a>	הקובץ של MAdeinJLM	VI																																										
ֿVideeback	http://www.videeback.com	http://www.siftech.org.il/wp-content/uploads/2013/12/videeback-temp-logo-1.jpg	Hamagid 7				Internet	muninum@gmail.com		Roy Munin	Videeback lets you create virtual training rooms for your students and friends to master new skills together, from the comfort of your home.		https://www.facebook.com/Videeback	31.765902	35.220129	Nope			Startup	2012	Yes	No						<img src="http://www.siftech.org.il/wp-content/uploads/2013/12/videeback-temp-logo-1.jpg" style="max-height: 100px;max-width: 100px;" />	<a target="_blank" rel="nofollow" href="http://www.videeback.com">ֿVideeback</a>	הקובץ של MAdeinJLM	ֿVideeback																																										
Viewbix	http://www.viewbix.com	http://www.viewbix.com/img/logo.png	Yigal Alon, Bet Shemesh	Bet Shemesh		12	Internet	ben@viewbix.com	052 830 9617	Ben	Viewbix allows you to take your existing video and add apps and calls to action to your video. Viewbix allows you to brand your video by adding a custom skin and logo to your video. On the backend, Viewbix provides you with the analytical data you need to A/B test different videos to ensure the best experience for your viewers. 	Viewbix	https://www.facebook.com/Viewbix	31.756605	34.988167	Yes, we are hiring!			Startup	If you have any questions feel free to contact me.	www.viewbix.com							<img src="http://www.viewbix.com/img/logo.png" style="max-height: 100px;max-width: 100px;" />	<a target="_blank" rel="nofollow" href="http://www.viewbix.com">Viewbix</a>	הקובץ של MAdeinJLM	Viewbix																																										
Viryanet	http://www.viryanet.com/	http://madeinjlm.org/map/1px.png	Har Hotzvim	HH	Big	50	Software							31.802765	35.209683													<img src="http://madeinjlm.org/map/1px.png" style="max-height: 100px;max-width: 100px;" />	<a target="_blank" rel="nofollow" href="http://www.viryanet.com/">Viryanet</a>	הקובץ של MAdeinJLM	Viryanet																																										
VLX (Van Leer-Xenia Ventures)	http://vlx.co.il	http://www.vlvj.co.il/images/VL-TR-PNG.png	Givat Ram	Givat Ram			Investor			Ori  Choshen	VLX formed recently, when Xenia VC & Van Leer Ventures merged their early-stage investment activities. They’re based in Givat Ram, and operate a technological OCS incubator specializing in the fields of Information Technology, Medical Devices and Industrial Applications.			31.779123	35.196724													<img src="http://www.vlvj.co.il/images/VL-TR-PNG.png" style="max-height: 100px;max-width: 100px;" />	<a target="_blank" rel="nofollow" href="http://vlx.co.il">VLX (Van Leer-Xenia Ventures)</a>	הקובץ של MAdeinJLM	VLX (Van Leer-Xenia Ventures)																																										
VMWare	http://www.vmware.com/il	http://madeinjlm.org/map/1px.png	Hartum 8	HH		50	Software				VMware, Inc. is a software company that provides cloud and virtualization software and services. Acquired Jerusalem-based SaaS company DigitalFuel in 2011			31.802838	35.213303													<img src="http://madeinjlm.org/map/1px.png" style="max-height: 100px;max-width: 100px;" />	<a target="_blank" rel="nofollow" href="http://www.vmware.com/il">VMWare</a>	הקובץ של MAdeinJLM	VMWare																																										
Wadi Ventures	http://wadiventures.com/	http://wadiventures.com/wp-content/uploads/2012/07/Wadi-Ventures-resized2.png	Mevaseret, TLV	Other			Investor			Reuven Ulmansky	Wadi Ventures, founded in August 2012 by Jonathan Pacifici and Reuven Ulmansky  (read about the team here), is the new and improved accelerator model for early stage disruptive internet and new media startups in Israel. Wadi Ventures is on the lookout for Israel’s top talent and plans to accept around 60 new startups by the end of 2014. Israel’s startup community is bursting at the seams with unique ideas but we’ve seen awesome ideas fall flat when the business side of the company did not receive proper attention. That’s where Wadi Venture comes in.  We are a new European-backed micro seed venture capital fund. Our program provides its companies with an early stage acceleration and investment program with a focus on three fronts so that they are brought to launch as well-structured companies with great business connections.			31.80519	35.149205													<img src="http://wadiventures.com/wp-content/uploads/2012/07/Wadi-Ventures-resized2.png" style="max-height: 100px;max-width: 100px;" />	<a target="_blank" rel="nofollow" href="http://wadiventures.com/">Wadi Ventures</a>	הקובץ של MAdeinJLM	Wadi Ventures																																										
Wayzee	http://wayzee.co.il	http://img.uxi.org.il.s3.amazonaws.com/2012/04/wayzee181555131.jpg	25 Nachal shimshon st. Ramat Bet Shemesh	Bet Shemesh		2	Service Provider / Outsource	info@wayzee.co.il	054-8422325	Elchanan Cohen	Everything for you online presence! We are a design development &consulting firm specialized in UX, design, identity, development & programming.  We have experience with startup and commercial companies.  turn your idea into business.			31.712151	34.999911	Nope			Service Provider / Outsource			2007	No	Yes				<img src="http://img.uxi.org.il.s3.amazonaws.com/2012/04/wayzee181555131.jpg" style="max-height: 100px;max-width: 100px;" />	<a target="_blank" rel="nofollow" href="http://wayzee.co.il">Wayzee</a>	הקובץ של MAdeinJLM	Wayzee																																										
Webbing	https://alpha.webbing.me/	http://www.jerusalemstartuphub.com/wp-content/uploads/2013/07/Webbing-260x218.png	Jerusalem Startup Hub Shlomtzion	Center	Pre-Seed	2	Internet			Roman (Rafael) Gold 	Interest-based network powered by game-changing technology. Webbing revolutionizes social connectivity and content discovery, making sure you find the right people and the right information.		https://www.facebook.com/webbing.me	31.778813	35.22249													<img src="http://www.jerusalemstartuphub.com/wp-content/uploads/2013/07/Webbing-260x218.png" style="max-height: 100px;max-width: 100px;" />	<a target="_blank" rel="nofollow" href="https://alpha.webbing.me/">Webbing</a>	הקובץ של MAdeinJLM	Webbing																																										
Winsite	http://win-site.co.il/	http://madeinjlm.org/map/1px.png	Canfey Nesharim 68, Jerusalem	Givat Saul		5	Service Provider / Outsource	netta@itrigger.co.il	054-6548055	Netta Shafir	Website development company			31.787609	35.181892	Yes, we are hiring!			Service Provider / Outsource									<img src="http://madeinjlm.org/map/1px.png" style="max-height: 100px;max-width: 100px;" />	<a target="_blank" rel="nofollow" href="http://win-site.co.il/">Winsite</a>	הקובץ של MAdeinJLM	Winsite																																										
Wishi	http://wishi.me	http://dkrf2s8o4m66u.cloudfront.net/media/frontend/images/terms.png	JVP Media Quarter, Hevron Road 24	Talpiot	Young	7	Internet	Lia Kislev			Wishi  is a new age social fashion styling experience. 			31.767147	35.225628													<img src="http://dkrf2s8o4m66u.cloudfront.net/media/frontend/images/terms.png" style="max-height: 100px;max-width: 100px;" />	<a target="_blank" rel="nofollow" href="http://wishi.me">Wishi</a>	הקובץ של MAdeinJLM	Wishi																																										
Woxxer	www.woxxer.com	http://marketing.woxxer.com/logo.png	16  Shai Agnon 	Katamon	young	6	Internet	Yoni@woxxer.com	054-723-4614	Yoni Cantor Wiseman	Woxxer is a feedback capture tool for internet content engagement. Woxxer offers businesses the ability to search and filter customer preferences and turns their business-consumer relationships, social media campaigns and market research from an art into a science	woxxerinc	www.facebook.com/woxxer	31.762085	35.203766		Woxxer offers users a way to express themselves meaningfully, with the ease of a like button but the depth of a conversation.		Startup		No	2013																																																			
zapo	http://www.zapo.co.il	http://zapo.co.il/wp-content/themes/zapo/img/logo.png	3 Chaim Reuven Kubersky			2	Internet	info@zapo.co.il	972779555694	amiel riss	zapo develops a way to design and order online Personalized Gifts and custom promotional products.		https://www.facebook.com/zapo.co.il	31.75408	35.243858	Nope			Startup			2013	No	Yes			Yes	<img src="http://zapo.co.il/wp-content/themes/zapo/img/logo.png" style="max-height: 100px;max-width: 100px;" />	<a target="_blank" rel="nofollow" href="http://www.zapo.co.il">zapo</a>	הקובץ של MAdeinJLM	zapo																																										
Zifim	http://www.behance.net/zifim	http://behance.vo.llnwd.net/profiles19/1357647/cd84f07dd804268aacb50a5140bb8c6c.png	tzeret 7 jerusalem, Israel	Talpiot			Service Provider / Outsource	harel850@gmail.com	525734948	Harel Menachem	Zifim is a Visual Communication and Illustration studio. The studio was founded by Amasa Menachem, graduates of the Visual Communications Department in Bezalel Academy, Jerusalem, and Harel Menachem, graduates of the Visual Communications Department in Shenkar Academy, Ramat Gan. Amasa specialising in web design and Illustration and for culture. Harel specializing in typography design and high quality branding. 		https://www.facebook.com/zifimDesign	31.752611	35.212115	Nope			Service Provider / Outsource				No	No			No	<img src="http://behance.vo.llnwd.net/profiles19/1357647/cd84f07dd804268aacb50a5140bb8c6c.png" style="max-height: 100px;max-width: 100px;" />	<a target="_blank" rel="nofollow" href="http://www.behance.net/zifim">Zifim</a>	הקובץ של MAdeinJLM	Zifim																																										
אברהם פרמה				בחר איזור תעשיה					0546644754	יונה גפן	מפתחת טכנולוגיה בתאי גזע.					Nope												<img src="" style="max-height: 100px;max-width: 100px;" />	<a target="_blank" rel="nofollow" href="">אברהם פרמה</a>	הקובץ של הרל"י	Avraham Pharma	לא	מודיעין עסקי - ביו		היי-טק		לא	לא	לא	כן	מעבר לירושלים	לא	יונה גפן		לא	לא	לא	לא	לא		כן	לא	לא	לא	לא	לא	לא	לא	לא	Shai Melcer	לא	לא	לא										
אברון מערכות	http://www.evronsystems.co.il		כפר-ההייטק, ת.ד. 39235	כפר היי-טק		2			1-700-50-30-30	אבי מרון	אספקת פתרונות בתחום המערכות בקרה והתראה			31.782	35.2155	Yes, we are hiring!												<img src="" style="max-height: 100px;max-width: 100px;" />	<a target="_blank" rel="nofollow" href="http://www.evronsystems.co.il">אברון מערכות</a>	הקובץ של הרל"י	Evron	לא	אחר	02-5610195	היי-טק	לא	לא	כן	לא	כן	אחר	לא	אבי מרון		לא	לא	לא	לא	לא		לא	לא	לא	לא	לא	לא	לא	לא	לא		לא	לא	לא		2	2	16						
אגת פתרונות תוכנה	http://www.agatsolutions.com/		הרטום 19, בניין בינת קומה 8	הר חוצבים		6	software		052-5209860	יואב קרומבי	החברה עוסקת בכתיבת תוכנה ובמתן שירותי תמיכה למשרדי ממשלה			31.782	35.2155	Yes, we are hiring!												<img src="" style="max-height: 100px;max-width: 100px;" />	<a target="_blank" rel="nofollow" href="http://www.agatsolutions.com/">אגת פתרונות תוכנה</a>	הקובץ של הרל"י	agat	לא	הפניה		היי-טק	לא	לא	כן	לא	כן	מעבר לירושלים	לא	גיא אלדן	513026542	לא	לא	לא	כן	לא		כן	לא	לא	כן	לא	לא	לא	לא	לא	Itzik Ozer	לא	כן	כן		5	1							
אדורו ביוטק			Bancroft Way	בחר איזור תעשיה					0544422111	ברוך הלפרט	פארמה																	<img src="" style="max-height: 100px;max-width: 100px;" />	<a target="_blank" rel="nofollow" href="">אדורו ביוטק</a>	הקובץ של הרל"י	Aduro biotech	כן	הפניה		ביו-טק		לא	כן	לא	כן	אחר	לא	Stephen Isaacs'		לא	לא	לא	לא	לא		לא	לא	לא	לא	לא	לא	כן	לא	לא	Shai Melcer	לא	לא	לא										
אומת	http://www.omative.com		נחום הפסדי 5, ת.ד. 34272	גבעת שאול			software		02-6510310	חמדה גלעד	Optimization& Machine Automation Technology			31.7941	35.2148	Nope												<img src="" style="max-height: 100px;max-width: 100px;" />	<a target="_blank" rel="nofollow" href="http://www.omative.com">אומת</a>	הקובץ של הרל"י	Omat	לא	אחר	02-6511786	אחר	לא	לא	לא	לא	כן	אחר	לא			לא	לא	לא	לא	לא		לא	לא	לא	לא	לא	לא	לא	לא	לא		לא	לא	לא										
אוקון מדיקל	http://www.oconmed.com		בניין 2.3 כפר ההייטק גבעת רם	Givat Ram		2	medical	ariel@ococmed.com	052-6363316	אריאל ויינשטיין	פיתוח אמצעי מניעה לנשים			31.782	35.2155	Nope												<img src="" style="max-height: 100px;max-width: 100px;" />	<a target="_blank" rel="nofollow" href="http://www.oconmed.com">אוקון מדיקל</a>	הקובץ של הרל"י	Ocon Medical	לא	אחר	02-6551881	ביו-טק	לא	לא	כן	לא	כן	מוסד אקדמי	לא	אריאל ויינשטיין	514568328	לא	לא	לא	לא	לא		לא	לא	לא	לא	לא	לא	לא	לא	לא		לא	כן	כן			1	1						
אוקלארו	http://www.oclaro.com		בית הדרים, ת.ד. 45076	HH					02-5827171	מיכל אפל	suppliers of optical components, modules and subsystems for the global optical communications market and into industrial and consumer laser applications					Nope												<img src="" style="max-height: 100px;max-width: 100px;" />	<a target="_blank" rel="nofollow" href="http://www.oclaro.com">אוקלארו</a>	הקובץ של הרל"י	Oclaro	לא	אחר	02-5827172	ביו-טק	לא	לא	לא	לא	כן	אחר	לא			לא	לא	לא	לא	לא		לא	לא	לא	לא	לא	לא	לא	לא	לא		לא	לא	לא										
אזור פי סי אר				בחר איזור תעשיה					+44 203 286 4657	סיימון בנגן						Yes, we are hiring!												<img src="" style="max-height: 100px;max-width: 100px;" />	<a target="_blank" rel="nofollow" href="">אזור פי סי אר</a>	הקובץ של הרל"י	Azure pcr	לא	אחר		ביו-טק		לא	לא	לא	כן	מעבר לירושלים	לא			לא	לא	לא	לא	לא		לא	לא	לא	לא	לא	לא	לא	לא	לא	Shai Melcer	לא	לא	לא										
אי.אי.סי.סי.			בית הדפוס 12, בית השנהב אגף B קומה ב'	גבעת שאול			software		02-6525442	שלומי ויסמן	הנדסת חשמל ומערכות בקרה			31.7941	35.2148	Nope												<img src="" style="max-height: 100px;max-width: 100px;" />	<a target="_blank" rel="nofollow" href="">אי.אי.סי.סי.</a>	הקובץ של הרל"י	E.E.C.C	לא	אחר	02-6525443	היי-טק	לא	לא	לא	לא	כן	אחר	לא	שלומי ויסמן		לא	לא	לא	לא	לא		לא	לא	לא	לא	לא	לא	לא	לא	לא		לא	לא	לא										
איון מדיקל	http://www.eye-yon.com		כפר ההיטק קמפוס גבעת רם , האוניברסיטה העברית	כפר היי-טק		2	medical		02-6553333	נחום פררה	חברת הזנק בתחום המכשור הרפואי האופתלמי המפתחת פתרונות יחודיים להקלה וטיפול של בצקת בקרנית			31.782	35.2155	Nope												<img src="" style="max-height: 100px;max-width: 100px;" />	<a target="_blank" rel="nofollow" href="http://www.eye-yon.com">איון מדיקל</a>	הקובץ של הרל"י	Eyeyon Medical	לא	אחר	077-3454332	ביו-טק	לא	כן	כן	לא	כן	מוסד אקדמי	לא	נחום פררה	514509603	לא	לא	לא	לא	לא		כן	לא	לא	לא	לא	לא	לא	לא	כן		כן	כן	כן		1	1							
איזון פארמה	http://www.izunpharma.com		קריית המדע 5	HH			pharma		02-5860780	איימי רוזנבלאו	anti-inflammatory therapies			31.809	35.2235	Nope												<img src="" style="max-height: 100px;max-width: 100px;" />	<a target="_blank" rel="nofollow" href="http://www.izunpharma.com">איזון פארמה</a>	הקובץ של הרל"י	Izun Pharma	לא	אחר	02-5861814	ביו-טק	לא	לא	לא	לא	כן	אחר	לא			לא	לא	לא	לא	לא		לא	לא	לא	לא	לא	לא	לא	לא	לא		לא	לא	לא										
איי.אי.איי	http://www.iei-energy.co.il/		ת.ד. 45408	HH			Energy		02-5412884	אסתי אספיר	פיתוח פרויקט מיצוי דלקים וגז טבעי בתת הקרקע (In-Situ) מפצלי שמן			31.809	35.2235	Nope												<img src="" style="max-height: 100px;max-width: 100px;" />	<a target="_blank" rel="nofollow" href="http://www.iei-energy.co.il/">איי.אי.איי</a>	הקובץ של הרל"י	IEI	לא	אתר אינטרנט	02-5412801	ביו-טק	לא	לא	לא	לא	כן	אחר	לא			לא	לא	לא	לא	לא		לא	לא	לא	לא	לא	לא	לא	לא	לא		לא	לא	לא										
איי.וי. אל. לאבס	http://www.avl-labs.com		המרפא 8	הר חוצבים			medical		02-5400796	מתי בן משה				31.809	35.2235	Nope												<img src="" style="max-height: 100px;max-width: 100px;" />	<a target="_blank" rel="nofollow" href="http://www.avl-labs.com">איי.וי. אל. לאבס</a>	הקובץ של הרל"י	AVL labs	לא	אחר	02-5401168	ביו-טק	לא	לא	לא	לא	כן	אחר	לא			לא	לא	לא	לא	לא		לא	לא	לא	לא	לא	לא	לא	לא	לא		לא	לא	לא										
איי.וי.אקס	http://www.avx.com		המרפא 3	הר חוצבים		12	software		02-5720111	צבי ויסברט	פיתוח, ייצור ושיווק של רכיבים אלקטרוניים			31.809	35.2235	Nope												<img src="" style="max-height: 100px;max-width: 100px;" />	<a target="_blank" rel="nofollow" href="http://www.avx.com">איי.וי.אקס</a>	הקובץ של הרל"י	AVX	כן	בחר מקור	02-5815999	היי-טק	לא	לא	כן	לא	כן	בחר מהות הפניה	לא		510862857	לא	לא	לא	לא	לא		לא	לא	לא	לא	לא	לא	לא	לא	לא		לא	לא	לא		12	10							
איי.טי.סי. סיסטמס	http://www.bellacontour.com		גן טכנולוגי מלחה, בניין A, קומה 1	גט"י מלחה			pharma		02-6483519	אורי שמש				31.7698	35.21215	Nope												<img src="" style="max-height: 100px;max-width: 100px;" />	<a target="_blank" rel="nofollow" href="http://www.bellacontour.com">איי.טי.סי. סיסטמס</a>	הקובץ של הרל"י	ATC Systems	לא	אחר	02-6483541	ביו-טק	לא	לא	לא	לא	כן	אחר	לא			לא	לא	לא	לא	לא		לא	לא	לא	לא	לא	לא	לא	לא	לא		לא	לא	לא										
איי.פי. קונקט	http://www.ipconnect.co.il/		קרית מדע 6	HH			software		074-7800100	נחמן כהן	פתרונות תקשורת מתקדמים לעסקים ולמוסדות. תחומי הפעילות של אי.פי. קונקט הם: הקמה ותחזוק של מרכזיות אי פי  אספקת ציוד מחשבים (חומרה ותוכנה) והקמת רשתות תקשורת  שירותי תמיכה ותחזוקה לרשתות מחשבים ושרתים  הספקת תקשורת נייחת.			31.809	35.2235	Nope												<img src="" style="max-height: 100px;max-width: 100px;" />	<a target="_blank" rel="nofollow" href="http://www.ipconnect.co.il/">איי.פי. קונקט</a>	הקובץ של הרל"י	I.P. Connect	לא	אתר אינטרנט		היי-טק	לא	לא	לא	לא	כן	אחר	לא	נחמן כהן		לא	לא	לא	לא	לא		לא	לא	לא	לא	לא	לא	לא	לא	לא		לא	לא	לא										
איי.פי.טי. מערכות תוכנה	http://www.aptsoftware.co.il/	http://www.hotzvim.org.il/wp-content/uploads/2013/10/aptsoftware-185x120.png	הרטום 9 הר חוצבים	הר חוצבים					5325222- 02	אברהם	החברה נוסדה בשנת 1998 בירושלים במטרה למצוא את הפתרונות האמיתיים למנהלי המוסדות והארגונים, לראשי קרנות החסד והגמחים, ולבעלי העסקים, אשר ייתן להם מענה לצרכים הייחודיים בציבור החרדי והדתי. המערכות מציעות את הפתרונות המתקדמים ביותר לשליטה ובקרה בכל תחומי ניהול הכספים ויחסי הציבור של המוסד, כ"כ פתרונות סליקה בכל אמצעי התשלום הקיימים בשוק, הן במזומן, הן בשקים, הן בהוראות קבע, והן בכרטיסי אשראי. בשנת 2002 נפתח בהיכלי בית היצירה של חברת A.P.T מערכות תוכנה, מחלקה חדשה לכתיבת תוכנות ושיווק לעסקים גדולים וקטנים, כדוגמת בתי מלון, בתי קברות, עם אופציות רבות של תצוגה ויזואלית, וכו'.			31.809	35.2235	Nope												<img src="http://www.hotzvim.org.il/wp-content/uploads/2013/10/aptsoftware-185x120.png" style="max-height: 100px;max-width: 100px;" />	<a target="_blank" rel="nofollow" href="http://www.aptsoftware.co.il/">איי.פי.טי. מערכות תוכנה</a>	הקובץ של הרל"י	APT Software	לא	אתר אינטרנט		היי-טק	לא	לא	לא	לא	כן	אחר	לא	אברהם		לא	לא	לא	לא	לא		לא	לא	לא	לא	לא	לא	לא	לא	לא		לא	לא	לא										
אימיונווייטיב טראפיס	http://www.immunovative.co.il		גן טכנולוגי מלחה, בניין 1	Malcha			pharma	info@immunovative.co.il	02-6506288	טלי גן	פיתוח תרופות לחיזוק המערכת החיסונית של התא לטובת מענה לסרטן ומחלות זיהומיות			31.7698	35.21215	Yes, we are hiring!												<img src="" style="max-height: 100px;max-width: 100px;" />	<a target="_blank" rel="nofollow" href="http://www.immunovative.co.il">אימיונווייטיב טראפיס</a>	הקובץ של הרל"י	Immunovative Therapies	לא	בחר מקור		ביו-טק	לא	לא	כן	לא	כן	אחר	לא			לא	לא	לא	לא	לא		לא	לא	לא	לא	לא	לא	לא	כן	לא		לא	לא	לא										
אינוסייו				בחר איזור תעשיה					054-4440272	ד"ר ארתור נימון	מנועים. (המדענים הרוסים) מעוניינים לפתוח חברה בירושלים					Nope												<img src="" style="max-height: 100px;max-width: 100px;" />	<a target="_blank" rel="nofollow" href="">אינוסייו</a>	הקובץ של הרל"י	lnnosave	לא	אתר אינטרנט		היי-טק		לא	לא	לא	כן	אחר	לא			לא	לא	לא	לא	לא		לא	לא	לא	לא	לא	לא	לא	לא	לא	Yosef Apter	לא	לא	לא										
אינטק פארמה	http://www.intecpharma.com/		הרטום 12 ת.ד. 45219	HH			pharma		0543040930	Nir Sassi	Intec Pharma is a drug development company, applying its innovative proprietary gastric retention technology to develop improved formulations of existing drugs.			31.809	35.2235	Nope												<img src="" style="max-height: 100px;max-width: 100px;" />	<a target="_blank" rel="nofollow" href="http://www.intecpharma.com/">אינטק פארמה</a>	הקובץ של הרל"י	Intec Phama	לא	אחר	02-5869176	ביו-טק		לא	לא	לא	כן	הרחבת עסק בירושלים	לא	גיורא קרני		לא	לא	לא	לא	לא		לא	לא	לא	לא	לא	לא	לא	לא	לא	Shai Melcer	לא	לא	לא										
אינקס זמיר	http://www.inexzamir.com		גט"י מלחה, בניין 1/22	Malcha					02-6797460	סת' ג'ייקובסון	The company offers engineering insight through experience in Parking, Toll Road, Security, Surveillance, ITS, Travel Time, Traffic Management and Access Control applications. From system design to local onsite management of systems installation, our aim is to prove ourselves a valuable partner for your project.					Nope												<img src="" style="max-height: 100px;max-width: 100px;" />	<a target="_blank" rel="nofollow" href="http://www.inexzamir.com">אינקס זמיר</a>	הקובץ של הרל"י	Inex Zamir	לא	אחר	02-6797470	היי-טק	לא	לא	לא	לא	כן	אחר	לא			לא	לא	לא	לא	לא		לא	לא	לא	לא	לא	לא	לא	לא	לא		לא	לא	לא										
אינרסנס	http://www.innersense-semi.com/		הרטום 19	HH		7	software	bienen@gmail.com	02-5634446	Yakov Bienenstock				31.809	35.2235	Yes, we are hiring!												<img src="" style="max-height: 100px;max-width: 100px;" />	<a target="_blank" rel="nofollow" href="http://www.innersense-semi.com/">אינרסנס</a>	הקובץ של הרל"י	Innersense	לא	אחר	15325619631	היי-טק		לא	כן	לא	כן	אחר	לא		513180190	לא	לא	לא	לא	לא		לא	לא	לא	לא	לא	לא	לא	לא	לא	nisan lieblein	לא	לא	לא		5	2							
אל סיאלו	http://www.alcielo.com/		נחום חפצדי 5	גבעת שאול			software		02-6595539	שחק משה	מו"פ וייצור טכנולוגיות לייזר וגלאים. - החברה קיימת כ-12 שנים.			31.7941	35.2148	Yes, we are hiring!												<img src="" style="max-height: 100px;max-width: 100px;" />	<a target="_blank" rel="nofollow" href="http://www.alcielo.com/">אל סיאלו</a>	הקובץ של הרל"י	Al Cielo	כן	אתר אינטרנט	02-6541221	היי-טק	לא	לא	לא	לא	כן	אחר	לא	ארנון ארבל		לא	לא	לא	לא	לא		לא	לא	לא	לא	לא	לא	לא	לא	לא		לא	לא	לא										
אלומון לאבס	http://www.alomone.com/	http://www.alomone.com/images/english/logo.jpg	המרפא 8 ת.ד. 4287	הר חוצבים			pharma		02-5871102	יהודית מובשוביץ	production of primary antibodies, small molecules and proteins and peptides used in basic science research			31.809	35.2235	Nope												<img src="http://www.alomone.com/images/english/logo.jpg" style="max-height: 100px;max-width: 100px;" />	<a target="_blank" rel="nofollow" href="http://www.alomone.com/">אלומון לאבס</a>	הקובץ של הרל"י	Alomon Labs	לא	בחר מקור	02-5871106	ביו-טק	לא	לא	לא	לא	כן	אחר	לא			לא	לא	לא	לא	לא		לא	לא	לא	לא	לא	לא	לא	לא	לא		לא	לא	לא										
אמפאייר	http://www.mpayer.co.il		המרפא 8, בית בינת, הר-חוצבים	HH		3		contact@empayer.co.il	02-5388119	שמואל יחזקאל	פיתוח תוכנה ל-WEB, סמארטפונים עבור חברות וכן יזמויות פרטיות בתחום					Yes, we are hiring!												<img src="" style="max-height: 100px;max-width: 100px;" />	<a target="_blank" rel="nofollow" href="http://www.mpayer.co.il">אמפאייר</a>	הקובץ של הרל"י	Mpayer	לא	אחר	02-5388119	היי-טק	לא	כן	כן	לא	כן	מוסד אקדמי	לא	שמואל יחזקאל	514598663	לא	כן	לא	לא	לא		לא	לא	לא	לא	לא	לא	לא	לא	לא		לא	כן	כן			2	1						
אנרטי	http://www.enertgroup.com		גט"י מלחה בניין 1B	גט"י מלחה			software		02-6502777	אסף חרץ	Optimization of Thermal Solar Power Generation Plants			31.7698	35.21215	Nope												<img src="" style="max-height: 100px;max-width: 100px;" />	<a target="_blank" rel="nofollow" href="http://www.enertgroup.com">אנרטי</a>	הקובץ של הרל"י	Ener-T	כן	אחר	02-6502778	היי-טק	לא	לא	לא	לא	כן	הרחבת עסק בירושלים	לא	אסף חרץ		לא	לא	לא	כן	לא		לא	לא	לא	לא	לא	לא	לא	לא	לא		לא	לא	לא										
אפוסנס בע"מ 				בחר איזור תעשיה				info@aposense.com	039215717	Alon Dumanis	פיתוח מוצרי הדמיה ותרופות מולקולאריות					Nope												<img src="" style="max-height: 100px;max-width: 100px;" />	<a target="_blank" rel="nofollow" href="">אפוסנס בע"מ </a>	הקובץ של הרל"י	Aposense	לא	מודיעין עסקי - ביו		ביו-טק		לא	לא	לא	כן	אחר	לא	יורם אשרי		לא	לא	לא	לא	לא		כן	לא	לא	לא	לא	לא	לא	לא	לא	Udi Ben-dror	לא	לא	לא										
אקווטל ישראל	http://www.equatel.com		הרטום 19	הר חוצבים		4	media		02-571035	גרי	ייצור ופיתוח של מערכות תקשורת לעולם השלישי			31.809	35.2235	Nope												<img src="" style="max-height: 100px;max-width: 100px;" />	<a target="_blank" rel="nofollow" href="http://www.equatel.com">אקווטל ישראל</a>	הקובץ של הרל"י	Equatel Israel	כן	אחר	02-5714029	תקשורת	לא	לא	כן	לא	כן	אחר	לא	גרי	513737270	לא	לא	לא	לא	לא		לא	לא	לא	לא	לא	לא	לא	לא	לא		לא	לא	לא			3	1						
אקסקונקט	http://www.xconnect.net		גן טכנולוגי מלחה	Malcha			media		02-6218007	רייצ'ל דלי	VOIP			31.7698	35.21215	Nope												<img src="" style="max-height: 100px;max-width: 100px;" />	<a target="_blank" rel="nofollow" href="http://www.xconnect.net">אקסקונקט</a>	הקובץ של הרל"י	XConnect	לא	אחר	02-6788712	תקשורת	לא	לא	לא	לא	כן	אחר	לא			לא	לא	לא	לא	לא		לא	לא	לא	לא	לא	לא	לא	לא	לא		לא	לא	לא										
אר-נט טק	http://www.rnet-tec.com		הרטום 12, קומה 1-, הר חוצבים	HH		7	software		02-5711354	גילי בן שלמה	פיתוח מערכות מחשוב לנקודות מכירה במגוון תחומים ברחבי הארץ (חנויות, הנהלה, סלולר, תחנות נוחות ועוד)			31.809	35.2235	Yes, we are hiring!												<img src="" style="max-height: 100px;max-width: 100px;" />	<a target="_blank" rel="nofollow" href="http://www.rnet-tec.com">אר-נט טק</a>	הקובץ של הרל"י	Rnet Tec	לא	אחר	02-5860439	היי-טק	לא	לא	כן	לא	כן	אחר	לא	גילי בן שלמה	513817023	לא	לא	לא	לא	לא		לא	לא	לא	לא	לא	כן	כן	לא	לא		לא	לא	כן		3	1	3						
אתנה קרדיונט			עין רוגל 49	בחר איזור תעשיה					02-6711233	יורי אפלבאום	פארמה					Nope												<img src="" style="max-height: 100px;max-width: 100px;" />	<a target="_blank" rel="nofollow" href="">אתנה קרדיונט</a>	הקובץ של הרל"י	Athena Cardionet	לא	הפניה	077-9304040	ביו-טק		לא	לא	לא		אחר	לא			לא	לא	לא	לא	לא		לא	לא	לא	לא	לא	לא	לא	לא	לא	Shai Melcer	לא	לא	לא										
אתר פלוס	http://www.atarplpl.co.il		גן טכנולוגי מלחה, בניין 9	גט"י מלחה		1	Service Provider / Outsource		02-6310246	חיים רוזנפלד	פיתוח תוכנה לגופים שונים כגון אקדמיה, ממשלה,אל-על, משטרה וכו'.			31.7698	35.21215	Yes, we are hiring!												<img src="" style="max-height: 100px;max-width: 100px;" />	<a target="_blank" rel="nofollow" href="http://www.atarplpl.co.il">אתר פלוס</a>	הקובץ של הרל"י		לא	אחר		היי-טק	לא	לא	כן	לא	כן	מוסד אקדמי	לא	חיים רוזנפלד	514061001	לא	לא	לא	כן	לא		לא	לא	לא	כן	לא	לא	לא	לא	לא		לא	כן	כן		7	1	2						
בי אם אר סולושנס			סוקולוב 27	בחר איזור תעשיה						רונן קהנה	פאמרה					Nope												<img src="" style="max-height: 100px;max-width: 100px;" />	<a target="_blank" rel="nofollow" href="">בי אם אר סולושנס</a>	הקובץ של הרל"י	BMR Solutions	לא	הפניה		ביו-טק		לא	לא	לא		אחר	לא			לא	לא	לא	לא	לא		לא	לא	לא	לא	לא	לא	לא	לא	לא	Shai Melcer	לא	לא	לא										
בי.אי.איי. מערכות רוקר	http://www.baesystems.com/		הרטום 11	הר חוצבים					02-5329888	בי.אי.איי. מערכות רוקר	תעשייה בטחונית					Nope												<img src="" style="max-height: 100px;max-width: 100px;" />	<a target="_blank" rel="nofollow" href="http://www.baesystems.com/">בי.אי.איי. מערכות רוקר</a>	הקובץ של הרל"י	BEA Systems rokar	כן	אתר אינטרנט		היי-טק	לא	לא	לא	לא	כן	בחר מהות הפניה	לא			לא	לא	לא	לא	לא		לא	לא	לא	לא	לא	לא	לא	לא	לא		לא	לא	לא										
ביו קונטרול מדיקל בע"מ				בחר איזור תעשיה												Nope												<img src="" style="max-height: 100px;max-width: 100px;" />	<a target="_blank" rel="nofollow" href="">ביו קונטרול מדיקל בע"מ</a>	הקובץ של הרל"י	Bio Control Medical	לא	מודיעין עסקי - ביו		היי-טק		לא	לא	לא	כן	אחר	לא			לא	לא	לא	לא	לא		לא	לא	לא	לא	לא	לא	לא	לא	לא		לא	לא	לא										
ביוטן פארמה				אחר					052-3848507	Tamar Tennenbaum	יזמית סדרתית. מספר פעילויות על הפרק - הקמה של חברת סטארט אפ, הקמה של קונסורציום של פרויקטים בתחום הסרטן בשיתוף פעולה עם חברת פארמה, הקמת מפעל ייצור כימי לחומרי ספיגה.					Yes, we are hiring!												<img src="" style="max-height: 100px;max-width: 100px;" />	<a target="_blank" rel="nofollow" href="">ביוטן פארמה</a>	הקובץ של הרל"י	Bioten Pharma	לא	אחר	02-6524599	ביו-טק	כן	לא	כן	כן	כן	הרחבת עסק בירושלים	לא	Tamar Tennenbaum		לא	לא	לא	כן	לא		לא	לא	כן	לא	לא	לא	לא	לא	לא	Shai Melcer	לא	כן	לא										
ביוטרם			עמק ברכה	בחר איזור תעשיה					054-5375565	לבוביץ' שמיר	פארמה					Nope												<img src="" style="max-height: 100px;max-width: 100px;" />	<a target="_blank" rel="nofollow" href="">ביוטרם</a>	הקובץ של הרל"י	Bioterm	לא	הפניה	03-6954711	ביו-טק		לא	לא	לא		מעבר לירושלים	לא			לא	לא	לא	לא	לא		לא	לא	לא	לא	לא	לא	לא	לא	לא	Shai Melcer	לא	לא	לא										
ביוקום	http://www.biocom.co.il		הרטום 10	הר חוצבים		17	software	micb@biocom.co.il	02-6400500	מישאל בן שטרית	פיתוח וייצור מערכות ביטחון מבוססות ביומטריה של תווי פנים ותביעות אצבע			31.809	35.2235	Yes, we are hiring!												<img src="" style="max-height: 100px;max-width: 100px;" />	<a target="_blank" rel="nofollow" href="http://www.biocom.co.il">ביוקום</a>	הקובץ של הרל"י	Biocom	לא	אחר	02-6798899	היי-טק		כן	כן	לא	כן	אחר	לא	מישאל בן שטרית	514410927	לא	כן	לא	כן	לא		לא	לא	לא	לא	לא	לא	לא	לא	לא	Yosef Apter	לא	כן	כן		4	5	3						
ביטאלנד הנדסת מערכות	http://www.betaland.co.il		הרטום 9	הר חוצבים			software	mail@betaland.co.il	02-5711540	ביטאלנד	Betaland Software Engineering specializes in software systems designed exclusively for small and large organizations			31.809	35.2235	Nope												<img src="" style="max-height: 100px;max-width: 100px;" />	<a target="_blank" rel="nofollow" href="http://www.betaland.co.il">ביטאלנד הנדסת מערכות</a>	הקובץ של הרל"י	Betaland Software Engineering	לא	אחר	02-5711541	היי-טק	לא	לא	לא	לא	כן	אחר	לא			לא	לא	לא	לא	לא		לא	לא	לא	לא	לא	לא	לא	לא	לא		לא	לא	לא										
בירון שירותי שפות			צאלון 168	בחר איזור תעשיה					077-343595	ד"ר אביאור ביירון	החברה מספקת שירותי תרגום ל-50 שפות					Nope												<img src="" style="max-height: 100px;max-width: 100px;" />	<a target="_blank" rel="nofollow" href="">בירון שירותי שפות</a>	הקובץ של הרל"י	Byron	לא	מודיעין עסקי - מיקור חוץ	153-89420627	היי-טק		לא	לא	לא	כן	מעבר לירושלים	לא			לא	לא	לא	לא	לא		לא	לא	לא	לא	לא	לא	לא	לא	לא	Yosef Apter	לא	לא	לא										
בית הטריידר				בחר איזור תעשיה					054-2261771	מקסים זליגמן						Nope												<img src="" style="max-height: 100px;max-width: 100px;" />	<a target="_blank" rel="nofollow" href="">בית הטריידר</a>	הקובץ של הרל"י		לא	אחר		היי-טק	לא	לא	לא	כן	כן	הרחבת עסק בירושלים	לא		514609742	לא	לא	לא	לא	לא		לא	לא	לא	לא	לא	לא	לא	לא	לא		לא	לא	לא										
בית הספר לצילום מוסררה				אחר					02-6286519 שלוחה 109	נטע שלזינגר	מענק למיזמי תרבות במרחב הציבורי- חברת עדן					Nope												<img src="" style="max-height: 100px;max-width: 100px;" />	<a target="_blank" rel="nofollow" href="">בית הספר לצילום מוסררה</a>	הקובץ של הרל"י		לא	אתר אינטרנט		אחר		לא	לא	לא	כן	מוסד אקדמי	לא	אבי סבג	580150761	לא	לא	לא	לא	לא		לא	לא	לא	לא	לא	לא	כן	לא	לא		לא	לא	לא										
בריינסוויי (Brainsway Inc.)	http://www.brainsway.com/		המרפא 8	HH			medical		025813141	Uzi Sofer	החברה פיתחה מכשיר שפועל לגירוי עמוק של המוח לטיפול בהפרעות פסיכיאטריות ונוירולוגיות			31.809	35.2235	Yes, we are hiring!												<img src="" style="max-height: 100px;max-width: 100px;" />	<a target="_blank" rel="nofollow" href="http://www.brainsway.com/">בריינסוויי (Brainsway Inc.)</a>	הקובץ של הרל"י	Brainsway	לא	אחר		ביו-טק	כן	לא	לא	כן	כן	אחר	לא	Uzi Sofer		לא	לא	לא	לא	לא		לא	כן	לא	לא	לא	לא	לא	לא	לא	Shai Melcer	לא	לא	כן										
בריינסטורם תרפיה תאית בע"מ 				בחר איזור תעשיה												Nope												<img src="" style="max-height: 100px;max-width: 100px;" />	<a target="_blank" rel="nofollow" href="">בריינסטורם תרפיה תאית בע"מ </a>	הקובץ של הרל"י	Brainstorm	לא	מודיעין עסקי - ביו		היי-טק		לא	לא	לא	כן	אחר	לא			לא	לא	לא	לא	לא		לא	לא	לא	לא	לא	לא	לא	לא	לא		לא	לא	לא										
ג'מה מדיקל	http://www.ilsi.org.il/companies_incubator_company.asp?ID=104		חממת ואן ליר, קמפוס האונ' העברית גבעת-רם	כפר היי-טק		2	medical		02-655-3333	רז בראון	פיתוח מערכת חדשנית למיפוי חשלמי של הקיבה לשם אבחון והצעת טיפול לחולים עם הפרעות בתנועתיות הקיבה כדוגמת גסטרופרסיס			31.782	35.2155	Nope												<img src="" style="max-height: 100px;max-width: 100px;" />	<a target="_blank" rel="nofollow" href="http://www.ilsi.org.il/companies_incubator_company.asp?ID=104">ג'מה מדיקל</a>	הקובץ של הרל"י	Gema medical	לא	אחר	02-566-1881	ביו-טק	לא	לא	כן	לא	כן	אחר	לא	רז בראון	514474725	לא	לא	לא	לא	לא		לא	לא	לא	לא	לא	לא	לא	לא	לא		לא	לא	לא			1							
גארד				בחר איזור תעשיה												Nope												<img src="" style="max-height: 100px;max-width: 100px;" />	<a target="_blank" rel="nofollow" href="">גארד</a>	הקובץ של הרל"י	Gard	לא	בחר מקור		היי-טק		לא	לא	לא	כן	אחר	לא			לא	לא	לא	לא	לא		לא	לא	לא	לא	לא	לא	לא	לא	לא		לא	לא	לא										
גליקומיינדס בע"מ 				בחר איזור תעשיה												Nope												<img src="" style="max-height: 100px;max-width: 100px;" />	<a target="_blank" rel="nofollow" href="">גליקומיינדס בע"מ </a>	הקובץ של הרל"י	Glycominds	לא	מודיעין עסקי - ביו		היי-טק		לא	לא	לא	כן	אחר	לא			לא	לא	לא	לא	לא		לא	לא	לא	לא	לא	לא	לא	לא	לא		לא	לא	לא										
גמאטרוניק תעשיות אלקטרוניות	http://www.gamatronic.co.il		הרטום 17	הר חוצבים			hardware		02-5888242	יוסי נעמת	פיתוח, ייצור, הרכבה, שיווק, מכירה וייצוא של מוצרים בתחום אלקרטוניקת ההספק			31.809	35.2235	Yes, we are hiring!												<img src="" style="max-height: 100px;max-width: 100px;" />	<a target="_blank" rel="nofollow" href="http://www.gamatronic.co.il">גמאטרוניק תעשיות אלקטרוניות</a>	הקובץ של הרל"י	Gamatronic Electronic Industries	לא	אחר	02-5828875	היי-טק	לא	לא	כן	לא	כן	אחר	לא	יוסי גורן	520041872	לא	כן	לא	לא	לא		לא	לא	לא	לא	לא	לא	לא	לא	לא		לא	לא	לא										
גרין סאן אנרג'י	http://www.greensun.biz/		המרפא 8	HH			software		054-4458804	סטיבן סייגלאוב	פיתוח ייצור ומכירת מערכות פאנלים סולאריים לייצור חשמל			31.809	35.2235	Nope												<img src="" style="max-height: 100px;max-width: 100px;" />	<a target="_blank" rel="nofollow" href="http://www.greensun.biz/">גרין סאן אנרג'י</a>	הקובץ של הרל"י	GreenSun Energy	לא	אתר אינטרנט		היי-טק	לא	לא	לא	לא	כן	אחר	לא	אמנון לייקוביץ'		לא	לא	לא	לא	לא		לא	לא	לא	לא	לא	לא	לא	לא	לא		לא	לא	לא										
דטה טראק			Passstr. 9	הר חוצבים					-2339	טיגראן ארזומנוב	תוכנה לניהול ניסויים קליניים			31.809	35.2235	Nope												<img src="" style="max-height: 100px;max-width: 100px;" />	<a target="_blank" rel="nofollow" href="">דטה טראק</a>	הקובץ של הרל"י	DataTrak International	לא	הפניה	-4363	ביו-טק		לא	לא	לא		אחר	לא			לא	לא	לא	לא	לא		לא	לא	לא	לא	לא	לא	לא	לא	לא	Shai Melcer	לא	לא	לא										
דטהנט אי.טי.סי. מערכות			נחום חפצדי 5	גבעת שאול					000	דטהנט						Nope												<img src="" style="max-height: 100px;max-width: 100px;" />	<a target="_blank" rel="nofollow" href="">דטהנט אי.טי.סי. מערכות</a>	הקובץ של הרל"י	Datanet I.T.C. Systems	לא	אחר		היי-טק	לא	לא	לא	לא	כן	בחר מהות הפניה	לא		513030627	לא	לא	לא	לא	לא		לא	לא	לא	לא	לא	לא	לא	לא	לא		לא	לא	לא										
היי-שואו				בחר איזור תעשיה					052-2601265	יצחק גרשונוביץ	פיתוח טכנולוגי לסיוע לכבדי ראייה					Nope												<img src="" style="max-height: 100px;max-width: 100px;" />	<a target="_blank" rel="nofollow" href="">היי-שואו</a>	הקובץ של הרל"י	Hi Show	לא	בחר מקור		היי-טק	לא	לא	לא	לא	כן	מעבר לירושלים	לא	יצחק גרשונוביץ		לא	לא	לא	לא	לא		לא	לא	לא	לא	לא	לא	לא	לא	לא		לא	לא	לא										
היל אפלייד מדיקל			גבעת רם 113	Givat Ram					052-2602128	שמוליק אייזנמן	מיכשור רפואי					Nope												<img src="" style="max-height: 100px;max-width: 100px;" />	<a target="_blank" rel="nofollow" href="">היל אפלייד מדיקל</a>	הקובץ של הרל"י	HIL Applied Medical	לא	הפניה		היי-טק		לא	לא	לא		אחר	לא			לא	לא	לא	לא	לא		לא	לא	לא	לא	לא	לא	לא	לא	לא	Shai Melcer	לא	לא	לא										
ויזיוניקס	http://www.visionix.com		גט"י מלחה 9	Malcha				visionix@visionix.com	02-6797401	ויזיוניקס	VISIONIX develops, manufactures and distributes innovative equipment and provides a complete solution for ophthalmologists, optometrists, opticians and laboratories.			31.7698	35.21215	Nope												<img src="" style="max-height: 100px;max-width: 100px;" />	<a target="_blank" rel="nofollow" href="http://www.visionix.com">ויזיוניקס</a>	הקובץ של הרל"י	Visionix	לא	אחר	02-6797399	ביו-טק	לא	לא	לא	לא	כן	אחר	לא			לא	לא	לא	לא	לא		לא	לא	לא	לא	לא	לא	לא	לא	לא		לא	לא	לא										
ויזימיקס			המרפא 8 ת.ד. 45170	HH					02-5870123	לאוניד ברגינסקי	Software of chemical engineering			31.809	35.2235	Nope												<img src="" style="max-height: 100px;max-width: 100px;" />	<a target="_blank" rel="nofollow" href="">ויזימיקס</a>	הקובץ של הרל"י	Visimix	לא	אחר	02-5870206	היי-טק	לא	לא	לא	לא	כן	אחר	לא			לא	לא	לא	לא	לא		לא	לא	לא	לא	לא	לא	לא	לא	לא		לא	לא	לא										
ויקוי ננומדיסין			בר אילן 9	בחר איזור תעשיה					050-3834022	ארז ליבנה	פארמה					Nope												<img src="" style="max-height: 100px;max-width: 100px;" />	<a target="_blank" rel="nofollow" href="">ויקוי ננומדיסין</a>	הקובץ של הרל"י	Vecoy Nanomedicines	לא	הפניה	09-8945623	ביו-טק		לא	לא	לא		מעבר לירושלים	לא			לא	לא	לא	לא	לא		לא	לא	לא	לא	לא	לא	לא	לא	לא	Shai Melcer	לא	לא	לא										
זיו מערכות לתכנון בנייה	http://www.ziv.co.il		המרפא 8	HH		4	Software		02-5820666	ירון ברוך	פיתוח, שיווק ויישום תוכנה בתחום הנדל"ן, ומערכות ERP ו-SAP			31.809	35.2235	Yes, we are hiring!												<img src="" style="max-height: 100px;max-width: 100px;" />	<a target="_blank" rel="nofollow" href="http://www.ziv.co.il">זיו מערכות לתכנון בנייה</a>	הקובץ של הרל"י	ZIV systems	לא	אחר	02-5820606	היי-טק	לא	לא	כן	לא	כן	הרחבת עסק בירושלים	לא	ירון ברוך	התמחות בע"מ	לא	לא	כן	כן	כן		לא	לא	לא	לא	לא	לא	לא	לא	לא		לא	כן	כן			10	15						
חגית בגנו	http://hagitbagno.co.il	http://www.hagitbagno.co.il/sites/default/files/mylogo_0.png	Nechama 1, Homat-Shmuel			1	Service Provider / Outsource	hagit.bagno@gmail.com	054-3913330	Hagit Bagno	מפתחת אתרים באינטרנט, בעלת ניסיון עשיר והכרות עמוקה עם עולם האינטרנט. פיתוח במגוון טכנולוגיות תוך שימוש בקוד פתוח ובאינטגרציה עם מערכות קיימות. פיתוח אתרי תדמית, אתרי תוכן, חנויות וירטואליות, פורטלים ארגוניים ועסקיים. 		https://www.facebook.com/hagit.bagno			Nope			Service Provider / Outsource				Yes	No				<img src="http://www.hagitbagno.co.il/sites/default/files/mylogo_0.png" style="max-height: 100px;max-width: 100px;" />	<a target="_blank" rel="nofollow" href="http://hagitbagno.co.il">חגית בגנו</a>	הקובץ של MAdeinJLM	חגית בגנו																																										
טלדור	http://www.taldor.co.il/			גט"י מלחה					03-9298298	אייל טוכמן	פתרונות מידע ותפעול					Yes, we are hiring!												<img src="" style="max-height: 100px;max-width: 100px;" />	<a target="_blank" rel="nofollow" href="http://www.taldor.co.il/">טלדור</a>	הקובץ של הרל"י	Taldor	לא	אחר		היי-טק	לא	לא	לא	לא	כן	בחר מהות הפניה	לא	אריה רימיני		לא	לא	לא	לא	לא		לא	לא	לא	לא	לא	לא	לא	לא	לא		לא	לא	לא										
טליט תקשורת			נירים 11	בחר איזור תעשיה					03-7914000	גדעון רוגובסקי	החברה מפתחת ומייצרת מנועים סלולארים					Nope												<img src="" style="max-height: 100px;max-width: 100px;" />	<a target="_blank" rel="nofollow" href="">טליט תקשורת</a>	הקובץ של הרל"י	Telit communication	לא	מודיעין עסקי - שכר גבוה		היי-טק		לא	לא	לא	כן	מעבר לירושלים	לא			לא	לא	לא	לא	לא		לא	לא	לא	לא	לא	לא	לא	לא	לא	Itzik Ozer	לא	לא	לא										
טנגו טק	http://www.tangotec.com/		הגן הטכנולוגי 1, מלחה	גט"י מלחה					02-5718555	רן דרור	חברת טנגוטק מפתחת צ'יפ התומך בתקן חדש להעברת אינטרנט על תשתיות ביתיות. לחברה ישנו סניף מכירות בירושלים והינה מוכרת גם בארה"ב. טנגוטק הינה חברה קטנה המונה כארבעה אנשים.			31.7698	35.21215	Nope												<img src="" style="max-height: 100px;max-width: 100px;" />	<a target="_blank" rel="nofollow" href="http://www.tangotec.com/">טנגו טק</a>	הקובץ של הרל"י	Tengo Tech	לא	אתר אינטרנט	02-5718556	היי-טק	לא	לא	לא	לא	כן	אחר	לא	רן דרור		לא	לא	לא	לא	לא		כן	לא	לא	לא	לא	לא	לא	לא	לא		לא	לא	לא										
טק או פארם ליברה	http://www.toplibra.co.il/		ת.ד. 45054, מרכז בק למדע	הר חוצבים				Main@toplibra.co.il	02-5870875	טק או פארם ליברה	חברת תרופות - הוקמה ב- 1992			31.809	35.2235	Nope												<img src="" style="max-height: 100px;max-width: 100px;" />	<a target="_blank" rel="nofollow" href="http://www.toplibra.co.il/">טק או פארם ליברה</a>	הקובץ של הרל"י	Tech O Pharm	לא	אתר אינטרנט	02-5870873	ביו-טק	לא	לא	לא	לא	כן	אחר	לא			לא	לא	לא	לא	לא		לא	לא	לא	לא	לא	לא	לא	לא	לא		לא	לא	לא										
יו.אס.אר. אלקטרוניק סיסטמס	http://www.usr.co.il		הרטום 12	הר חוצבים		13			02-5480505	שמעון אלגאלי	שירותים לייצור האלקטרוני (אולטרסאונד, לייזר) לתחום הצבאי, הרפאי והאזרחי			31.809	35.2235	Yes, we are hiring!												<img src="" style="max-height: 100px;max-width: 100px;" />	<a target="_blank" rel="nofollow" href="http://www.usr.co.il">יו.אס.אר. אלקטרוניק סיסטמס</a>	הקובץ של הרל"י	U.S.R. Electronic systems	לא	אחר	02-5868194	היי-טק	לא	כן	כן	לא	כן	הרחבת עסק בירושלים	לא	שמעון אלגאלי		לא	לא	לא	כן	לא		כן	לא	לא	לא	לא	לא	לא	כן	כן		לא	כן	כן			13							
יישום	http://www.yissum.co.il/		כפר ההייטק גבעת רם, ת.ד. 39135	Givat Ram		14		info@yissum.co.il	02-6586688	דנה גביש	Hebrew University Technology Transfer			31.782	35.2155	Yes, we are hiring!												<img src="" style="max-height: 100px;max-width: 100px;" />	<a target="_blank" rel="nofollow" href="http://www.yissum.co.il/">יישום</a>	הקובץ של הרל"י	Yissum Technology Transfer	כן	אחר	02-5686689	אחר	לא	כן	כן	לא	כן	מוסד אקדמי	לא			כן	לא	לא	כן	לא		כן	כן	לא	כן	לא	לא	לא	לא	כן		לא	כן	כן			14							
כיאזמה	http://www.chiasmapharma.com		הרטום 10	הר חוצבים		45			02-571-5885	חיים אורלב	פיתוח תרופות זריקה			31.809	35.2235	Yes, we are hiring!												<img src="" style="max-height: 100px;max-width: 100px;" />	<a target="_blank" rel="nofollow" href="http://www.chiasmapharma.com">כיאזמה</a>	הקובץ של הרל"י	Chiasma	לא	אחר	02-571-5886	ביו-טק	כן	כן	כן	לא	כן	הרחבת עסק בירושלים	לא			לא	לא	לא	לא	לא		לא	לא	לא	לא	לא	לא	לא	לא	כן		לא	כן	כן		15	8	7						
כרימיסופט			השיש 10	בחר איזור תעשיה					072-2510833	חניתה פרידמן	החברה מספקת שירותי תוכנה ובדיקות תוכנהעבור ארגונים תעשייתים					Nope												<img src="" style="max-height: 100px;max-width: 100px;" />	<a target="_blank" rel="nofollow" href="">כרימיסופט</a>	הקובץ של הרל"י	Karmisoft	לא	מודיעין עסקי - מיקור חוץ	04-9587733	היי-טק		לא	לא	לא	כן	מעבר לירושלים	לא			לא	לא	לא	לא	לא		לא	לא	לא	לא	לא	לא	לא	לא	לא	Yosef Apter	לא	לא	לא										
לאוקודקס	http://www.leukodx.com		המרפא 3	HH		7	Medical		02-6744422	ג'וליאן מייסונייר	פיתוח מכשור רפואי- טכנולוגיה של מדידת דם			31.809	35.2235	Yes, we are hiring!												<img src="" style="max-height: 100px;max-width: 100px;" />	<a target="_blank" rel="nofollow" href="http://www.leukodx.com">לאוקודקס</a>	הקובץ של הרל"י	Leuko DX	לא	אחר	02-6744455	ביו-טק	כן	לא	כן	לא	כן	הרחבת עסק בירושלים	לא	ג'וליאן מייסונייר		לא	כן	לא	כן	כן		לא	לא	לא	לא	כן	כן	לא	לא	לא		לא	לא	לא		3	2	2						
ליפוקיור				אחר					0544928601	Doron Friedman	שימוש בננו-ליפוזומים כאמצעי להחדרת תרופה. מפתחים 2 מוצרים עיקריים - לסרטן ולכאב. יזם החברה, פרופ' חזי ברנהולץ הוא יזם סדרתי וממציא תרופת הדוקסיל, המשווקת בעולם ע"י ג'ונסון. נמכרת במאות מיליונים בשנה.					Nope												<img src="" style="max-height: 100px;max-width: 100px;" />	<a target="_blank" rel="nofollow" href="">ליפוקיור</a>	הקובץ של הרל"י	Lipocure	לא	אחר		ביו-טק	כן	לא	כן	כן	כן	הרחבת עסק בירושלים	לא	Barenholz Chezi		לא	לא	לא	לא	לא		לא	כן	לא	לא	כן	לא	לא	לא	לא		לא	כן	לא										
מאדרס צ'ויס	http://www.yandbmc.com/		כפר ההייטק 4/9 גבעת רם, ת.ד. 39231	Givat Ram					02-5610752	קלואי בובלי	פיתוח מוצרי קוסמטיקה לילדים			31.782	35.2155	Nope												<img src="" style="max-height: 100px;max-width: 100px;" />	<a target="_blank" rel="nofollow" href="http://www.yandbmc.com/">מאדרס צ'ויס</a>	הקובץ של הרל"י	Mothers Choice	לא	אחר	02-6541649	ביו-טק	לא	לא	לא	לא	כן	בחר מהות הפניה	לא			לא	לא	לא	לא	לא		לא	לא	לא	לא	לא	לא	לא	לא	לא		לא	לא	לא										
מעבדות רפא	http://www.rafa.co.il		שלמה הלוי 5, ירושלים של כסף, כניסה A, ק'5	HH		18	pharma	rafa@rafa.co.ie	02-5893939	אולגה מרקין	ייצור ושיווק תרופות עם וללא מרשם			31.809	35.2235	Yes, we are hiring!												<img src="" style="max-height: 100px;max-width: 100px;" />	<a target="_blank" rel="nofollow" href="http://www.rafa.co.il">מעבדות רפא</a>	הקובץ של הרל"י	RAFA Laboratories	לא	אחר	02-5870280	ביו-טק	לא	כן	כן	לא	כן	הרחבת עסק בירושלים	לא	ירון זקהיים	510182462	כן	לא	לא	כן	לא		לא	כן	לא	כן	לא	לא	לא	לא	לא		לא	כן	כן			8	100						
מפי פארמה תאי גזע	http://www.mapi-pharma.com/			הר חוצבים					0506595980	Guy Krasny	פיתוח טיפול רפואי מבוסס על תאי גזע			31.809	35.2235	Nope												<img src="" style="max-height: 100px;max-width: 100px;" />	<a target="_blank" rel="nofollow" href="http://www.mapi-pharma.com/">מפי פארמה תאי גזע</a>	הקובץ של הרל"י	MAPI Pharma Stem Cells	לא	אחר		ביו-טק	כן	לא	כן	כן		מעבר לירושלים	לא			לא	לא	לא	לא	כן		לא	לא	כן	לא	כן	לא	לא	לא	לא	Shai Melcer	לא	לא	לא										
מרוז מערכות תוכנה	http://www.merozsoftware.co.il		בית הדפוס 12, בית השנהב A	גבעת שאול		9	hardware		02-6527501	אילון מרוז	פיתוח תוכנה לפי הזמנה במגזר העסקי והממשלתי, ופיתוח תוכנה למכוני שמיעה ולניהול מבחנים ומבדקים			31.7941	35.2148	Yes, we are hiring!												<img src="" style="max-height: 100px;max-width: 100px;" />	<a target="_blank" rel="nofollow" href="http://www.merozsoftware.co.il">מרוז מערכות תוכנה</a>	הקובץ של הרל"י	Meroz Software Systems	לא	אחר	02-6527508	היי-טק	לא	לא	כן	כן	כן	הרחבת עסק בירושלים	לא	אילון מרוז	511590869	לא	לא	לא	כן	לא		לא	לא	לא	כן	לא	כן	לא	לא	לא		לא	כן	כן		6	1	2						
נאנוניקס אימג'ינג בע"מ	http://www.nanonics.co.il		הרטום 19	הר חוצבים		41	software		02-6789573	ערן מעיין	ייצור, שיווק ופיתוח מערכות מיקרוסקופיה			31.809	35.2235	Yes, we are hiring!												<img src="" style="max-height: 100px;max-width: 100px;" />	<a target="_blank" rel="nofollow" href="http://www.nanonics.co.il">נאנוניקס אימג'ינג בע"מ</a>	הקובץ של הרל"י	Nanonics Imaging LTD	לא	בחר מקור		היי-טק	לא	לא	כן	לא	כן	אחר	לא	אהרון לואיס	512426529	לא	כן	לא	לא	כן		לא	כן	לא	לא	לא	לא	לא	לא	לא		לא	כן	כן		21	3	13						
נובלוס די אקס				אחר					0528118606	חיים גלעד	מפתחים כלים דיאגנוסטים לסרטן כדי לאפשר התאמת טיפול טובה יותר לחולה לפי מוטציות במחלה. מתמקדים בסרטן השד וסרטן ריאות.					Nope												<img src="" style="max-height: 100px;max-width: 100px;" />	<a target="_blank" rel="nofollow" href="">נובלוס די אקס</a>	הקובץ של הרל"י	NovellusDx	לא	הפניה		ביו-טק	כן	לא	כן	כן	כן	הרחבת עסק בירושלים	לא			לא	לא	לא	לא	לא		לא	כן	כן	לא	לא	לא	לא	לא	לא	Shai Melcer	לא	כן	לא										
ניביט	http://www.nibit.co.il		בית עומר, רחוב בית הדפוס 22, גבעת שאול	גבעת שאול				nibit@nibit.co.il	02-6541404	ניביט	ייצור ושיווק פתרונות תוכנה כוללים ERP לשוק המסחר הקמעונאי והסיטונאי. החברה מספקת שירותי תמיכה, הטמעה ואינטגרציה מערכתית			31.7698	35.21215	Yes, we are hiring!												<img src="" style="max-height: 100px;max-width: 100px;" />	<a target="_blank" rel="nofollow" href="http://www.nibit.co.il">ניביט</a>	הקובץ של הרל"י	Nibit	לא	אתר אינטרנט	02-6541505	היי-טק	לא	לא	לא	לא	כן	אחר	לא			לא	לא	לא	לא	לא		לא	לא	לא	לא	לא	לא	לא	לא	לא		לא	לא	לא										
סולאריס סינרג'י	http://solaris-synergy.com/		הרטום 12	הר חוצבים		5	software		052-2601804	יוסי פישר	חברת "clean tech"- פיתוח מערכות סולאריות ליצור חשמל, הצפות על מאגרי מים בטכנולוגיית PV מרכזית			31.809	35.2235	Nope												<img src="" style="max-height: 100px;max-width: 100px;" />	<a target="_blank" rel="nofollow" href="http://solaris-synergy.com/">סולאריס סינרג'י</a>	הקובץ של הרל"י	Solaris synergy	לא	אחר		היי-טק	לא	כן	כן	לא	כן	מוסד אקדמי	לא	יוסי פישר	514169044	כן	לא	לא	לא	לא		לא	לא	כן	לא	כן	לא	לא	כן	כן		לא	כן	כן		4	1							
סונריום מדיקל			כפר ההיי-טק	אחר						מיכאל ברמן	חברת מכשור רפואי					Nope												<img src="" style="max-height: 100px;max-width: 100px;" />	<a target="_blank" rel="nofollow" href="">סונריום מדיקל</a>	הקובץ של הרל"י	Sonarium Medical	לא	הפניה		ביו-טק		לא	לא	לא		אחר	לא			לא	לא	לא	לא	לא		לא	לא	לא	לא	לא	לא	לא	לא	לא	Shai Melcer	לא	לא	לא										
סוסייטה אופטיקס	http://www.optix-online.com		הגן הטכנולוגי מלחה, בניין 1, כניסה ב'	Malcha			medical		02-6798525	גד שוקרון	פיתוח עדשות ומכירתן דרך האינטרנט ע"י טלמרקטינג ובניית אתרים. בעיקר לצרפת. בחברה 13 עובדים, מתוכם 2 בהנהלה, 7 בתחום האינטרנט ו-4 בטלמרקטינג.			31.7698	35.21215	Yes, we are hiring!												<img src="" style="max-height: 100px;max-width: 100px;" />	<a target="_blank" rel="nofollow" href="http://www.optix-online.com">סוסייטה אופטיקס</a>	הקובץ של הרל"י	Optix	כן	בחר מקור		ביו-טק	לא	לא	כן	לא	כן	הרחבת עסק בירושלים	לא	גד שוקרון	514527134	לא	לא	לא	כן	לא		לא	לא	לא	כן	לא	לא	לא	לא	לא		לא	לא	לא										
סטם סל טרפיוטיקס			חממת ון-ליר, כפר ההייטק גבעת-רם	Givat Ram		2	pharma		02-5670986	זאק נעמי	פיתוח של אוכלוסיות מתאי גזע אנושיים לטיפול בסוכרת וגילוי תרופות חדשות לטיפול בסוכרת			31.782	35.2155	Nope												<img src="" style="max-height: 100px;max-width: 100px;" />	<a target="_blank" rel="nofollow" href="">סטם סל טרפיוטיקס</a>	הקובץ של הרל"י	Stem Cell Therapeutics	לא	אחר	02-5661881	ביו-טק	לא	לא	כן	לא	כן	אחר	לא	זאק נעמי	514528835	לא	לא	לא	לא	לא		כן	לא	לא	כן	לא	לא	לא	לא	לא		לא	לא	לא		2								
סיגמה-אולדריץ			קריית מדע	הר חוצבים						שירי	פיתוח פארמצבטי ויצור בתעשייה הכימית			31.809	35.2235	Nope												<img src="" style="max-height: 100px;max-width: 100px;" />	<a target="_blank" rel="nofollow" href="">סיגמה-אולדריץ</a>	הקובץ של הרל"י	sigma-aldrich	לא	הפניה		ביו-טק		לא	לא	לא		אחר	לא			לא	לא	לא	לא	לא		לא	לא	לא	לא	לא	לא	לא	לא	לא	Hagit Krakow	לא	לא	לא										
סיגנט-טק	http://sygnet-tech.com		כפר ההייטק גבעת רם, ת.ד. 39212	Givat Ram				investors@sygnet-tech.com	02-6516601	הילארי (אורלי) אלידן	פיתוח ושיווק מוצרי סלולר					Nope												<img src="" style="max-height: 100px;max-width: 100px;" />	<a target="_blank" rel="nofollow" href="http://sygnet-tech.com">סיגנט-טק</a>	הקובץ של הרל"י	Sygnet Technologies international	לא	אחר	02-6516602	היי-טק	לא	לא	לא	לא	כן	בחר מהות הפניה	לא			לא	לא	לא	לא	לא		לא	לא	לא	לא	לא	לא	לא	לא	לא		לא	לא	לא										
סיוון	http://www.civan.co.il/		כנפי נשרים 5	גבעת שאול			software		02-6513339	אייל שקל	החברה מפתחת ליזרים לתעשיה			31.7941	35.2148	Nope												<img src="" style="max-height: 100px;max-width: 100px;" />	<a target="_blank" rel="nofollow" href="http://www.civan.co.il/">סיוון</a>	הקובץ של הרל"י	civan	לא	הפניה	02-6521896	היי-טק		לא	כן	לא	כן	הרחבת עסק בירושלים	לא	אייל שקל		לא	לא	לא	לא	לא		לא	כן	לא	כן	לא	לא	לא	כן	לא	Itzik Ozer	לא	כן	כן										
סינתזה	http://www.detect-ready.com		הרטום 10	HH		2			02-5864026	אריה גאסל	איבחון מחלות זיהומיות			31.809	35.2235	Yes, we are hiring!												<img src="" style="max-height: 100px;max-width: 100px;" />	<a target="_blank" rel="nofollow" href="http://www.detect-ready.com">סינתזה</a>	הקובץ של הרל"י	Muleclular Detection	כן	בחר מקור		ביו-טק	לא	כן	כן	לא	כן	הרחבת עסק בירושלים	לא	אריה גאסל		לא	כן	לא	לא	לא		כן	לא	לא	לא	לא	לא	לא	לא	לא		לא	כן	כן		7	4	7						
ספירה ואופק	http://www.sephira.fr		רח' חפצדי 5, בית עופר	גבעת שאול			software	joseph.bouaniche@sephira.fr	02-6550773	דניאל ישראל	פיתוח תוכנה			31.7941	35.2148	Nope												<img src="" style="max-height: 100px;max-width: 100px;" />	<a target="_blank" rel="nofollow" href="http://www.sephira.fr">ספירה ואופק</a>	הקובץ של הרל"י	Sephira & Ofek	כן	אתר אינטרנט	02-6510137	היי-טק	לא	לא	לא	לא	כן	אחר	לא	דניאל ישראל		לא	לא	לא	לא	לא		לא	לא	לא	לא	לא	לא	לא	לא	לא		לא	לא	לא										
פאוור קומניקיישנס			הרטום 9, ת.ד. 45139	HH					02-5870591	נועם פרוימוביצ'י	תוכנה			31.809	35.2235	Nope												<img src="" style="max-height: 100px;max-width: 100px;" />	<a target="_blank" rel="nofollow" href="">פאוור קומניקיישנס</a>	הקובץ של הרל"י	Power communications	לא	אחר	02-5870601	היי-טק	לא	לא	לא	לא	כן	אחר	לא	נועם פרוימוביצ'י		לא	לא	לא	לא	לא		לא	לא	לא	לא	לא	לא	לא	לא	לא		לא	לא	לא										
פינבירד	http://www.finbird-ts.com		המרפא 8	הר חוצבים					44203-5140606 שלוחה 205	סמדר אסולין	FinBird is a market technology provider, in FX and CFDs systems.					Nope												<img src="" style="max-height: 100px;max-width: 100px;" />	<a target="_blank" rel="nofollow" href="http://www.finbird-ts.com">פינבירד</a>	הקובץ של הרל"י	Finbird Trading solution	לא	אחר		היי-טק	לא	לא	לא	לא	כן	אחר	לא			לא	לא	לא	לא	לא		לא	לא	לא	לא	לא	לא	לא	לא	לא		לא	לא	לא										
פרומינינג טרפיוטיקס	http://www.prominingtherapeutics.com		האוניברסיטה העיברית, כפר הי-טק, גבעת רם, ת.ד. 39158	Givat Ram		2	pharma		02-6509105	בועז עינבל	פיתוח תרופות לסרטן המעכבות קישור בין חלבונים			31.782	35.2155	Nope												<img src="" style="max-height: 100px;max-width: 100px;" />	<a target="_blank" rel="nofollow" href="http://www.prominingtherapeutics.com">פרומינינג טרפיוטיקס</a>	הקובץ של הרל"י	ProMining Therapeutics	לא	אחר		ביו-טק	לא	כן	כן	לא	כן	הרחבת עסק בירושלים	לא	איריס אלראי	514525989	לא	לא	לא	כן	לא		לא	לא	לא	לא	לא	לא	לא	לא	לא		לא	לא	כן			2							
פרמנקט			יזיב	עטרות					02-5853953	יוסי ברנד	ייצור כימיקלים					Nope												<img src="" style="max-height: 100px;max-width: 100px;" />	<a target="_blank" rel="nofollow" href="">פרמנקט</a>	הקובץ של הרל"י	Fermentek	לא	הפניה	02-5853943	ביו-טק		לא	לא	לא		אחר	לא			לא	לא	לא	לא	לא		לא	לא	לא	לא	לא	לא	לא	לא	לא	Hagit Krakow	לא	לא	לא										
פרסייט	http://www.parasight.com		גן טכנולוגי מלחה, בניין 8, ת.ד. 96951	Malcha		1			02-6737370	יוסי בכלת	חברת סטארט- אפ, מפתחת כלי דיאגנוסטי למחלת המלריה, באמצעות עיבוד תמונה.					Yes, we are hiring!												<img src="" style="max-height: 100px;max-width: 100px;" />	<a target="_blank" rel="nofollow" href="http://www.parasight.com">פרסייט</a>	הקובץ של הרל"י	parasight	כן	הפניה		ביו-טק		לא	כן	לא		אחר	לא	יוסי פולק	514496280	לא	לא	לא	לא	לא		לא	לא	לא	לא	לא	לא	לא	כן	לא	Hagit Krakow	לא	כן	כן		9	1							
קו-וקס	http://www.kovax.co.il		הרטום 19	HH		13	software		02-5865593	אורית קוטלר	פיתוח, ייצור ושיווק רכיבים לשוק המדגה בארץ ובעולם			31.809	35.2235	Yes, we are hiring!												<img src="" style="max-height: 100px;max-width: 100px;" />	<a target="_blank" rel="nofollow" href="http://www.kovax.co.il">קו-וקס</a>	הקובץ של הרל"י	Kovax	לא	בחר מקור	02-5879028	היי-טק	לא	כן	כן	לא	כן	הרחבת עסק בירושלים	לא	יניב קוטלר	513391943	לא	כן	לא	כן	לא		לא	לא	לא	לא	לא	לא	לא	לא	לא		לא	כן	כן		2	2	5						
קוואליטאס ביוטק				בחר איזור תעשיה					054-4449991	יורי שושן	מזון רפואי					Nope												<img src="" style="max-height: 100px;max-width: 100px;" />	<a target="_blank" rel="nofollow" href="">קוואליטאס ביוטק</a>	הקובץ של הרל"י	Qualitas Biotech	לא	הפניה		היי-טק		לא	לא	לא		הרחבת עסק בירושלים	לא			לא	לא	לא	לא	לא		לא	לא	לא	לא	לא	לא	לא	לא	לא	Shai Melcer	לא	לא	לא										
קולוגארד	http://www.cologuard.co.il/		בנין 2.3 כפר היי-טק האוניברסיטה העברית קמפוס גבעת רם	כפר היי-טק		1	medical		02-6553333	בועז אסף	פיתוח התקן הגנה על השקות במעי הגס			31.782	35.2155	Yes, we are hiring!												<img src="" style="max-height: 100px;max-width: 100px;" />	<a target="_blank" rel="nofollow" href="http://www.cologuard.co.il/">קולוגארד</a>	הקובץ של הרל"י	Cologuard	לא	אחר		ביו-טק	לא	לא	כן	לא	כן	אחר	לא	בועז אסף	514525971	לא	לא	לא	כן	לא		לא	לא	לא	כן	לא	לא	לא	לא	לא		לא	כן	כן			1							
קומפיומט	http://www.compumat.co.il		גבעת רם, כפר ההייטק, ת.ד. 39036	כפר היי-טק		3		info@compumat.co.il	02-5667777	שרית קומפיומת	פתרונות למערכות IT. קומפיומת היא חברת בת של EDP מפתח-תקווה			31.782	35.2155	Nope												<img src="" style="max-height: 100px;max-width: 100px;" />	<a target="_blank" rel="nofollow" href="http://www.compumat.co.il">קומפיומט</a>	הקובץ של הרל"י	Compumat	לא	אחר	02-5662322	היי-טק	לא	לא	כן	לא	כן	אחר	לא			לא	לא	לא	לא	לא		כן	לא	לא	לא	לא	לא	לא	לא	לא		לא	כן	כן		18	12							
קונדור פסיפיק			קרית המדע 6	הר חוצבים					02-5322267	Condor Pacific Industries Inc	ציוד ומכשירי אלקטרוניקה לציוד ביטחוני וצבאי			31.809	35.2155	Nope												<img src="" style="max-height: 100px;max-width: 100px;" />	<a target="_blank" rel="nofollow" href="">קונדור פסיפיק</a>	הקובץ של הרל"י	Condor Pacific	כן	אתר אינטרנט		היי-טק	לא	לא	לא	לא	כן	בחר מהות הפניה	לא			לא	לא	לא	לא	לא		לא	לא	לא	לא	לא	לא	לא	לא	לא		לא	לא	לא										
קיולייט ננוטק	http://www.qlightnano.com		פארק הי-טק, גבעת רם ת.ד. 39135	Givat Ram		13	software		02-6584253	זאב רום				31.782	35.2155	Yes, we are hiring!												<img src="" style="max-height: 100px;max-width: 100px;" />	<a target="_blank" rel="nofollow" href="http://www.qlightnano.com">קיולייט ננוטק</a>	הקובץ של הרל"י	Qlight Nanotech	לא	אחר		היי-טק	לא	לא	כן	לא	כן	אחר	לא	קובי אולין	513958272	לא	לא	לא	לא	לא		לא	לא	לא	לא	לא	לא	לא	לא	לא		לא	כן	כן		9	3	1						
ראשים תכנון וביצוע מערכות מידע	http://www.rashim.co.il		גן טכנולוגי מלחה, בניין 8	Malcha		23	software		072-2600002	יפתח שריג	פיתוח ומתן שירותי תמיכה למערכת מידע של מינהל אקדמי וניהול הדרכה			31.7698	35.21215	Yes, we are hiring!												<img src="" style="max-height: 100px;max-width: 100px;" />	<a target="_blank" rel="nofollow" href="http://www.rashim.co.il">ראשים תכנון וביצוע מערכות מידע</a>	הקובץ של הרל"י	Rashim Information Systems	לא	אחר		היי-טק	לא	לא	כן	לא	כן	אחר	לא	יפתח שריג	511237398	לא	לא	לא	לא	לא		לא	לא	לא	לא	לא	לא	כן	לא	לא		לא	לא	לא		10	3	10						
רג'נקיור	http://regenecure.co.il		הרטום 19	HH				harry@regenecure.co.il	0545985230	משה צברי				31.809	35.2235	Yes, we are hiring!												<img src="" style="max-height: 100px;max-width: 100px;" />	<a target="_blank" rel="nofollow" href="http://regenecure.co.il">רג'נקיור</a>	הקובץ של הרל"י	Regenecure	לא	אחר	02-5401015	ביו-טק	כן	לא	כן	כן	כן	הרחבת עסק בירושלים	לא	משה צברי		לא	לא	לא	לא	לא		לא	כן	לא	לא	לא	לא	לא	לא	לא	Shai Melcer	לא	כן	לא										
רד בינת			ראול ולנברג 24, ת"א	אחר			media		03-6459550	רונן אילון	חברה להשכרת נכסים			31.809	35.2235	Yes, we are hiring!												<img src="" style="max-height: 100px;max-width: 100px;" />	<a target="_blank" rel="nofollow" href="">רד בינת</a>	הקובץ של הרל"י		לא	אחר		אחר		לא	כן	לא	כן	הרחבת עסק בירושלים	לא			לא	לא	לא	כן	לא		כן	כן	לא	כן	לא	לא	לא	לא	לא	Itzik Ozer	לא	לא	לא										
רזיאל תרפויטיקס				בחר איזור תעשיה					0542325070	Alon Bloomenfeld	פיתוח תרופה לטיפול בהשמנת יתר					Nope												<img src="" style="max-height: 100px;max-width: 100px;" />	<a target="_blank" rel="nofollow" href="">רזיאל תרפויטיקס</a>	הקובץ של הרל"י	Raziel Therapeutics	לא	בחר מקור		בחר מגזר		לא	לא	לא	כן	בחר מהות הפניה	לא	Alon Bloomenfeld		לא	לא	לא	לא	לא		לא	לא	לא	לא	לא	לא	לא	לא	לא	Shai Melcer	לא	לא	לא										
ריי טכניקס			כפר הי-טק, ביתן 4-2, האוניברסיטה העברת בירושלים, גבעת רם, ת.ד. 39162	Givat Ram		8	pharma		02-5630941	בוריס זוסמן	תברה עוסקת בייצור ננו-יהלומים ובפותוח מוצרים חשדים מבוססים על תכונות יוצות דופן של ננו-יהלומים לצרכי תעשייה ולביו-מד (משחות תרמיות, תמיסות ננו-יהלום לטיפול בסרטן, שמנים טכניים, חומרי ליטוש ואחרים.			31.7741	35.2326	Yes, we are hiring!												<img src="" style="max-height: 100px;max-width: 100px;" />	<a target="_blank" rel="nofollow" href="">ריי טכניקס</a>	הקובץ של הרל"י	Ray Techniques	לא	בחר מקור	02-6535296	ביו-טק	לא	כן	כן	לא	כן	הרחבת עסק בירושלים	לא	אולגה לוינסון	514305671	כן	לא	לא	כן	לא		לא	לא	לא	כן	לא	לא	לא	לא	כן		כן	לא	לא		5	1	1						
רינלסנס			הר חוצבים בניין AVX	HH					0526071849	Avi Kleiman	ניתור בזמן אמת של תפקודי כליה			31.809	35.2235	Nope												<img src="" style="max-height: 100px;max-width: 100px;" />	<a target="_blank" rel="nofollow" href="">רינלסנס</a>	הקובץ של הרל"י	Renalsense	לא	אחר		ביו-טק	כן	לא	כן	כן	כן	בחר מהות הפניה	לא	Avi Kleiman		לא	לא	לא	לא	לא		לא	כן	לא	לא	כן	לא	לא	לא	לא	Shai Melcer	לא	כן	לא										
רנטסופט				בחר איזור תעשיה					052-7204440	מיקי לטין	החברה עוסקת במגוון תחומים: 1. שירותי אינטגרציה ב crm וב sap - בעיקר לחברות מצרפת. 2. שירותי קול סנטר לצרפת					Nope												<img src="" style="max-height: 100px;max-width: 100px;" />	<a target="_blank" rel="nofollow" href="">רנטסופט</a>	הקובץ של הרל"י		לא	הפניה		היי-טק		לא	כן	לא	כן	מעבר לירושלים	לא	פטריק רנטסופט		לא	לא	לא	כן	לא		כן	לא	לא	לא	לא	לא	לא	לא	לא	Itzik Ozer	לא	לא	לא										
רפא"ל				HH					04-8794704	רפי לוזון						Yes, we are hiring!												<img src="" style="max-height: 100px;max-width: 100px;" />	<a target="_blank" rel="nofollow" href="">רפא"ל</a>	הקובץ של הרל"י	rafael	לא	הפניה		היי-טק		לא	כן	לא	כן	מעבר לירושלים	לא			כן	לא	לא	לא	לא		לא	לא	לא	לא	לא	לא	לא	לא	לא	Itzik Ozer	לא	לא	לא										